NAME_VENUE,DESCRIPTION,ADDRESS1,ADDRESS2,ADDRESS3,CITY,POSTCODE,COUNTRY,LAT,LNG,SHOWN_ON_MAP,BUSINESS_TYPE,TOILET,WHEELCHAIR_ACCESS,PHONE_VENUE,EMAIL_VENUE,WEBSITE,FACEBOOK,TWITTER,NAME_MAIN_CONTACT,PHONE_MAIN_CONTACT,EMAIL_MAIN_CONTACT,OPENING_HOURS,MON_OPEN,MON_CLOSE,TUE_OPEN,TUE_CLOSE,WED_OPEN,WED_CLOSE,THU_OPEN,THU_CLOSE,FRI_OPEN,FRI_CLOSE,SAT_OPEN,SAT_CLOSE,SUN_OPEN,SUN_CLOSE,PRODUCT_LOCATION,STOCK
Crest Family Practice - William Budd,NA,Knowle West Health Park,Downton Road,,Bristol,BS4 1WH,United Kingdom,51.4287537,-2.5962626,FALSE,Health Centre,,,+44 117 944 9700,NA,http://www.crestfamilypractice.co.uk/,NA,NA,,,,TRUE,8:30,18:30,8:30,18:30,8:30,18:30,8:30,18:30,8:30,18:30,,,,,TBD,NA
Knowle West Children's Centre,NA,Leinster Avenue,,,Bristol,BS4 1NN,United Kingdom,51.425095,-2.595069,FALSE,Community Centre,,,+44 117 903 0214,NA,http://www.knowlewestchildrenscentre.bristol.sch.uk/,https://www.facebook.com/pages/Knowle-West-Childrens-Centre/,NA,,,,TRUE,18:58,18:00,18:58,18:00,18:58,18:00,18:58,18:00,18:58,18:00,18:58,18:00,18:58,18:00,TBD,NA
Filwood Community Centre,NA,Barnstaple Road,,,Bristol,BS4 1JP,United Kingdom,51.4255864,-2.5858419,TRUE,Community Centre,TRUE,TRUE,+44 117 914 9216,info@filwoodcentre.org.uk,https://filwoodcentre.org.uk/,https://www.facebook.com/filwoodcommunitycentre,https://twitter.com/filwoodcentre,Valerie,,info@filwoodcentre.org.uk,TRUE,9:00,19:00,9:00,19:00,9:00,19:00,9:00,19:00,9:00,16:00,,,,,Office in the entrance,NA
Filwood Library,NA,Filwood Broadway,,,Bristol,BS4 1JN,United Kingdom,51.4236115,-2.5858323,TRUE,Library,FALSE,TRUE,+44 117 903 8581,filwood.library@bristol.gov.uk,https://www.bristol.gov.uk/libraries-archives/library-finder/-/journal_content/56/20195/LIBRARY-UPRN-000000147115/LIBRARY-DISPLAY,https://www.facebook.com/BristolLibraries/,https://twitter.com/bristollibrary,Julia Ball,,julia.ball@bristol.gov.uk,TRUE,11:00,17:00,,,11:00,17:00,,,11:00,17:00,10:00,14:00,,,In the library,NA
Eagle House Youth Centre,NA,Newquay Road,,,Bristol,BS4 1EG,United Kingdom,51.4245196,-2.5790593,FALSE,Community Centre,,,+44 117 977 7795,NA,,NA,NA,,,,TRUE,0:00,23:00,0:00,23:00,0:00,23:00,0:00,23:00,0:00,23:00,0:00,23:00,0:00,23:00,TBD,NA
Eagle House Youth Centre,NA,Newquay Road,,,Bristol,BS4 1EG,United Kingdom,51.4245196,-2.5790593,FALSE,Youth Club,,,+44 117 977 7795,NA,,NA,NA,,,,TRUE,0:00,23:00,0:00,23:00,0:00,23:00,0:00,23:00,0:00,23:00,0:00,23:00,0:00,23:00,TBD,NA
The Withywood Centre,NA,Queen's Road,Bishopworth,,Bristol,BS13 8QA,United Kingdom,51.4078187,-2.6217787,TRUE,Community Centre,TRUE,TRUE,+44 117 987 8400,reception@withywoodcentre.com ,https://www.withywoodcentre.co.uk/,https://www.facebook.com/The-Withywood-Centre-154641354572898/,NA,Tracey Philips,,tracey@withywoodcentre.com,TRUE,8:30,18:30,8:30,18:30,8:30,18:30,8:30,18:30,8:30,18:30,,,9:30,12:15,1st Floor Foyer,NA
Hartcliffe Club For Young People,NA,136-184 Gatehouse Avenue,,,Bristol,BS13 9AQ,United Kingdom,51.4111085,-2.6131197,FALSE,Youth Club,,,,NA,,NA,NA,,,,TRUE,17:00,19:00,19:00,21:30,,,19:00,21:30,,,,,,,TBD,NA
The Gatehouse Centre,NA,The Gatehouse Centre,,,Bristol,BS13,United Kingdom,51.4127646,-2.6115078,FALSE,Community Centre,,,,gatehousecentre@yahoo.co.uk,https://www.hwv.org.uk/,https://www.facebook.com/HWV-The-Gatehouse-,https://www.twitter.com/hwvthe,,,,FALSE,,,,,,,,,,,,,,,TBD,NA
Hareclive E-Act Academy,NA,Moxham Drive,,,Bristol,BS13 0HP,United Kingdom,51.4066312,-2.6027405,FALSE,Youth Club,,,+44 117 903 8017,receptionHCL@E-ACT.org.uk,http://harecliveacademy.e-act.org.uk/,https://www.facebook.com/HarecliveEACTAcademy/,NA,,,,FALSE,,,,,,,,,,,,,,,TBD,NA
Hartcliffe Nursery School and Children's Centre,NA,Moxham Drive,,,Bristol,BS13 0JW,United Kingdom,51.4073246,-2.6022168,FALSE,Community Centre,,,+44 117 903 8633,NA,http://www.hartcliffenursery.co.uk/,https://www.facebook.com/pages/Hartcliffe-Nursery-School-Childrens-Centre,NA,,,,TRUE,8:30,17:30,8:30,17:30,8:30,17:30,8:30,17:30,8:30,17:30,,,,,TBD,NA
Hartcliffe Library,NA,Peterson Avenue,Symes Distrci Centre,,Bristol,BS13 0BE,United Kingdom,51.4046512,-2.5984785,TRUE,Library,TRUE,TRUE,+44 117 903 8568,hartcliffe.library@bristol.gov.uk,https://www.bristol.gov.uk/libraries-archives/library-finder/-/journal_content/56/20195/LIBRARY-UPRN-000000326327/LIBRARY-DISPLAY,https://www.facebook.com/BristolLibraries/,https://twitter.com/bristollibrary,Julia Ball,,julia.ball@bristol.gov.uk,TRUE,13:00,17:00,,,10:00,14:00,13:00,17:00,13:00,17:00,11:00,17:00,,,In the library,NA
Symes House,NA,Peterson Square,,,Bristol,BS13 0EE,United Kingdom,51.4046456,-2.5982882,FALSE,Community Centre,,,,NA,http://www.bristol.gov.uk/,NA,NA,,,,FALSE,,,,,,,,,,,,,,,TBD,NA
Hartcliffe Health Centre,NA,Hareclive Road,,,Bristol,BS13 0JP,United Kingdom,51.4075933,-2.6013179,FALSE,Health Centre,,,+44 117 301 5226,NA,http://www.nhs.uk/Services/GP/Overview/DefaultView.aspx?id=36384,NA,NA,,,,TRUE,13:30,18:30,13:30,18:30,13:30,18:30,13:30,18:30,13:30,18:30,,,,,TBD,NA
Grange Road Surgery,NA,24 Grange Road,Bishopworth,,Bristol,BS13 8LD,United Kingdom,51.4134923,-2.6196639,TRUE,GP,TRUE,TRUE,+44 117 964 4343,emily.nichols@nhs.net,http://www.grangeroadsurgery.co.uk/,https://www.facebook.com/grangeroadfamily/,NA,Emily Nichols,,emily.nichols@nhs.net,TRUE,8:30,20:30,8:30,18:30,8:30,18:30,8:30,18:30,8:30,18:30,9:00,11:30,,,Reception,NA
Heggard Close,NA,Heggard Close,,,Bristol,BS13 7SE,United Kingdom,51.4122636,-2.6162308,FALSE,Community Centre,,,,NA,,NA,NA,,,,FALSE,,,,,,,,,,,,,,,TBD,NA
Bannerman Road Community Academy,NA,All Hallows Road,,,Bristol,BS5 0HR,United Kingdom,51.4638865,-2.5644085,FALSE,Community Centre,,,+44 117 377 2080,info@bannermanroadbristol.org,http://www.bannermanroadbristol.org/,NA,http://www.twitter.com/BRCACC,,,,TRUE,8:00,17:00,8:00,17:00,8:00,17:00,8:00,17:00,8:00,17:00,,,,,TBD,NA
Easton Leisure Centre,NA,Thrissell Street,,,Bristol,BS5 0SW,United Kingdom,51.459761,-2.5738836,TRUE,Community Centre,TRUE,TRUE,+44 117 955 8840,noelhickman@everyoneactive.com,http://www.everyoneactive.com/centre/Easton-Leisure-Centre/?utm_source=Web&utm_medium=GoogleBusiness,https://www.facebook.com/eaEastonLC/,https://twitter.com/everyoneactive,Noel hickman &Kstherne Moran,,noelhickman@everyoneactive.com,TRUE,6:30,22:30,6:30,22:30,6:30,22:30,6:30,22:30,6:30,22:00,7:30,21:00,7:30,22:00,Ladies west side changing room,NA
Felix Road Adventure Playground,NA,Felix Road,,,Bristol,BS5 0JW,United Kingdom,51.463047,-2.567964,FALSE,Community Centre,,,+44 117 902 2222,NA,https://www.everyoneactive.com/centre/easton-leisure-centre/,https://www.facebook.com/eaEastonLC/,NA,,,,TRUE,15:30,17:30,15:30,17:30,15:30,17:30,15:30,17:30,,,,,13:00,17:00,TBD,NA
Empire Fighting Chance,NA,Felix Road,,,Bristol,BS5 0YJ,United Kingdom,51.4661505,-2.5724299,FALSE,Community Centre,,,+44 117 951 0188,info@empirefightingchance.org,http://www.empirefightingchance.org/,NA,https://www.twitter.com/EmpireFightingC,,,,FALSE,,,,,,,,,,,,,,,TBD,NA
Rosemary Nursery School and Children's Centre,NA,St Judes Flats,,,Bristol,BS2 0DT,United Kingdom,51.4578248,-2.5801877,FALSE,Community Centre,,,+44 117 903 1467,NA,http://www.rosemary.bristol.sch.uk/,NA,NA,,,,FALSE,,,,,,,,,,,,,,,TBD,NA
Trinity Community Arts,NA,Trinity Centre,Trinity Road,,Bristol,BS2 0NW,United Kingdom,51.4580448,-2.576009,FALSE,Community Centre,,,+44 117 935 1200,NA,http://3ca.org.uk/,https://www.facebook.com/trinitybristol,NA,,,,TRUE,9:00,17:00,9:00,17:00,9:00,17:00,9:00,17:00,9:00,17:00,9:00,17:00,,,TBD,NA
Lawrence Hill Health Centre,NA,Hassell Drive,,,Bristol,BS2 0AN,United Kingdom,51.4576521,-2.5717554,TRUE,Community Centre,TRUE,TRUE,+44 117 954 3030,lawrencehillhc@nhs.net,http://www.lawrencehillhealthcentre.co.uk/,https://www.facebook.com/pages/Lawrence-Hill-Health-Centre/,https://twitter.com/lawrencehillgps,Ewan Cameron,,ewan.cameron1@nhs.net,TRUE,8:00,18:30,8:00,18:30,8:00,18:30,8:00,18:30,8:00,18:30,,,,,Toilet next to the treatment room,NA
St Mungos,NA,1 New Street,,,Bristol,BS2 9DX,United Kingdom,51.4577768,-2.5823873,FALSE,Health Centre,,,+44 117 954 2958,info@mungos.org,https://www.mungos.org/,http://www.facebook.com/StMungosUK,NA,,,,FALSE,,,,,,,,,,,,,,,TBD,NA
Charlotte Keel Medical Practice,NA,77 Seymour Road,,,Bristol,BS5 0UA,United Kingdom,51.4658447,-2.5713621,FALSE,Health Centre,,,+44 117 902 7145,NA,http://www.charlottekeelmedical.co.uk/,NA,NA,,,,TRUE,8:30,18:30,13:30,18:30,13:30,18:30,13:30,18:30,13:30,18:30,,,,,TBD,NA
The Trussell Trust Food Bank,NA,St Marks Baptist Church,Saint Marks Road,,Bristol,BS5 6HX,United Kingdom,51.4674328,-2.5648556,FALSE,Foodbank,,,+44 117 951 0669,NA,https://www.trusselltrust.org/what-we-do/,http://www.facebook.com/trusselltrust,http://www.twitter.com/trusselltrust,,,,FALSE,,,,,,,,,,,,,,,TBD,NA
St Mark's Church,NA,Saint Marks Road,,,Bristol,BS5 6HX,United Kingdom,51.467419,-2.5648863,FALSE,Community Centre,,,+44 7549 684803,office@stmarkseaston.org.uk,http://www.stmarksbaptistbristol.org/,//www.facebook.com/stmarksbaptistbristol,NA,,,,FALSE,,,,,,,,,,,,,,,TBD,NA
Bristol Futures Academy,NA,Beam Street,,,Bristol,BS5 9QY,United Kingdom,51.455344,-2.560764,FALSE,Other,,,+44 117 955 1447,info@bristolfuturesacademy.co.uk,https://www.clf.uk/bristol-futures-academy/,www.facebook.com/CabotFederation,www.twitter.com/CabotFederation,,,,FALSE,,,,,,,,,,,,,,,TBD,NA
The Black Development Agency,NA,5 Russell Town Avenue,,,Bristol,BS5 9LT,United Kingdom,51.459356,-2.5631963,FALSE,Community Centre,,,+44 117 939 6645,NA,https://www.voscur.org/news/BDArebrand,https://www.facebook.com/voscur,NA,,,,FALSE,,,,,,,,,,,,,,,TBD,NA
Redfield Educate Together Primary Academy,NA,Avonvale Road,,,Bristol,BS5 9RH,United Kingdom,51.4578327,-2.5554099,FALSE,Community Centre,,,+44 117 379 0777,info@redfieldet.org.uk,http://www.redfieldet.org.uk/,NA,NA,,,,FALSE,,,,,,,,,,,,,,,TBD,NA
Easton Community Childrens Centre,NA,Russell Town Avenue,,,Bristol,BS5 9JF,United Kingdom,51.4592661,-2.562626,FALSE,Community Centre,,,+44 117 939 2550,NA,http://eastonccc.org.uk/,NA,NA,,,,TRUE,8:00,18:00,8:00,18:00,8:00,18:00,8:00,18:00,8:00,18:00,,,,,TBD,NA
Easton Community Centre,NA,Kilburn Street,,,Bristol,BS5 6AW,United Kingdom,51.4617648,-2.5629557,FALSE,Community Centre,,,+44 117 954 1409,info@eastoncommunitycentre.org.uk,http://www.eastoncommunitycentre.org.uk/,https://www.facebook.com/EastonCommunityCentreBristol/,NA,,,,TRUE,9:00,18:00,9:00,18:00,9:00,18:00,9:00,18:00,9:00,17:00,9:00,15:00,,,TBD,NA
The Limes Nursery School & Children's Centre,NA,Johnsons Road,,,Bristol,BS5 9AT,United Kingdom,51.464326,-2.5551378,FALSE,Community Centre,,,+44 117 903 0317,NA,http://www.limes.bristol.sch.uk/,NA,NA,,,,FALSE,,,,,,,,,,,,,,,TBD,NA
Redfield Care,NA,25 Verrier Road,,,Bristol,BS5 9LH,United Kingdom,51.4578965,-2.55674,FALSE,Community Centre,,,+44 117 955 9592,NA,,NA,NA,,,,FALSE,,,,,,,,,,,,,,,TBD,NA
Wellspring Healthy Living Centre,NA,Beam Street,,,Bristol,BS5 9QY,United Kingdom,51.45577,-2.561529,FALSE,Community Centre,,,+44 117 304 1400,NA,https://www.wellspringhlc.org.uk/,https://www.facebook.com/WellspringHealthyLivingCentre,NA,,,,TRUE,9:00,20:00,9:00,20:00,9:00,20:00,9:00,20:00,9:00,20:00,,,,,TBD,NA
Southmead Adventure Playground,NA,Doncaster Road,,,Bristol,BS10 5PP,United Kingdom,51.4995286,-2.6035579,FALSE,Other,,,+44 117 950 3607,NA,https://www.facebook.com/pg/Bristol-Playbus-171998082851657/events/?ref=page_internal,NA,NA,,,,TRUE,,,15:30,17:30,15:30,17:30,,,,,12:30,16:00,,,TBD,NA
Elmfield School for Deaf Children,NA,Greystoke Avenue,,,Bristol,BS10 6AY,United Kingdom,51.4974658,-2.613268,FALSE,Community Centre,,,+44 117 903 0366,NA,https://www.elmfield.bristol.sch.uk/,https://www.facebook.com/Elmfield-School-for-Deaf-Children-,NA,,,,FALSE,,,,,,,,,,,,,,,TBD,NA
Ecole Francaise de Bristol,NA,Stanton Road,,,Bristol,BS10 5SJ,United Kingdom,51.5046909,-2.5911353,FALSE,Community Centre,,,+44 117 969 2410,ecoledebristol@outlook.com?subject=Web%20Enquiry,http://www.ecolefrancaisedebristol.org/?lang=en,NA,NA,,,,TRUE,8:00,17:30,8:00,17:30,8:00,17:30,8:00,17:30,8:00,17:30,,,,,TBD,NA
Greenway Centre & Cafe,NA,Doncaster Road,,,Bristol,BS10 5PY,United Kingdom,51.4994852,-2.6089712,FALSE,Foodbank,,,+44 117 950 3335,NA,http://www.southmead.org/,NA,NA,,,,TRUE,8:00,22:00,8:00,22:00,8:00,22:00,8:00,22:00,8:00,22:00,9:00,17:00,9:00,17:00,TBD,NA
Greystoke Avenue Public Toilets,NA,Public Conveniences Greystoke Avenue Bristol,,,Bristol,BS10 6AD,United Kingdom,51.4985,-2.6121,FALSE,Public Toilet,,,+44 117 950 9713,NA,https://www.bristol.gov.uk/streets-travel/public-toilets,NA,NA,,,,TRUE,9:00,23:00,9:00,23:00,9:00,23:00,9:00,23:00,9:00,23:00,9:00,23:00,9:00,23:00,TBD,NA
Badock's Wood Children's Centre,NA,Doncaster Road,,,Bristol,BS10 5PW,United Kingdom,51.4979544,-2.5997951,FALSE,Community Centre,,,+44 117 377 2343,NA,https://www.daynurseries.co.uk/daynursery.cfm/searchazref/50002005BADB,NA,NA,,,,FALSE,,,,,,,,,,,,,,,TBD,NA
Southmead Community Association,NA,248 Greystoke Avenue,,,Bristol,BS10 6BQ,United Kingdom,51.5032116,-2.6006301,FALSE,Community Centre,,,+44 117 950 1187,NA,http://www.southmeadcommunitycentre.org.uk/,http://www.facebook.com/southmeadcommunitycentre/,NA,,,,FALSE,,,,,,,,,,,,,,,TBD,NA
Greystoke Avenue Bristol,NA,Greystoke Avenue Bristol,26 Greystoke Avenue,,Bristol,BS10 6AZ,United Kingdom,51.4982928,-2.6139489,FALSE,Community Centre,,,,NA,https://southmeadcommunitycentre.org.uk/,http://www.facebook.com/southmeadcommunitycentre/,NA,,,,FALSE,,,,,,,,,,,,,,,TBD,NA
Southmead Library,NA,143 Greystoke Avenue,,,Bristol,BS10 6AS,United Kingdom,51.5029639,-2.6037165,TRUE,Library,FALSE,TRUE,+44 117 903 8583,southmead.library@bristol.gov.uk,https://www.bristol.gov.uk/libraries-archives/library-finder/-/journal_content/56/20195/LIBRARY-UPRN-000000201220/LIBRARY-DISPLAY,https://www.facebook.com/BristolLibraries/,https://twitter.com/bristollibrary,Julia Ball,,julia.ball@bristol.gov.uk,TRUE,,,11:00,17:00,11:00,17:00,,,13:00,17:00,11:00,17:00,,,In the library,NA
Southmead Youth Centre,NA,Greystoke Avenue,,,Bristol,BS10 6AS,United Kingdom,51.503283,-2.60387,FALSE,Youth Club,,,+44 117 377 3605,NA,https://www.facebook.com/youthcentresouthmead/,NA,NA,,,,TRUE,16:30,21:00,9:45,20:00,15:30,21:00,15:30,21:00,16:00,19:30,,,,,TBD,NA
Southmead Health Centre,NA,Southmead Health Centre,,,Bristol,BS10 6DF,United Kingdom,51.5046694,-2.6015362,FALSE,Health Centre,,,,NA,,NA,NA,,,,FALSE,,,,,,,,,,,,,,,TBD,NA
Greenway Community Practice,NA,Greystoke Avenue,,,Bristol,BS10 6AF,United Kingdom,51.4993757,-2.6105509,FALSE,Health Centre,,,+44 117 959 8939,NA,http://www.greenwaycommunitypractice.nhs.uk/,https://www.facebook.com/BNSSGCCG/,NA,,,,TRUE,8:00,19:00,8:00,19:00,8:00,19:00,8:00,19:00,8:00,18:30,,,,,TBD,NA
Avonmouth Community Centre Association,NA,257 Avonmouth Road,,,Bristol,BS11 9EN,United Kingdom,51.5001642,-2.6983837,FALSE,Community Centre,,,+44 117 903 8580,julia.ball@bristol.gov.uk,https://sites.google.com/site/avonmouthcca/,https://www.facebook.com/avonmouthcommunity,NA,,,,TRUE,13:00,14:00,13:00,17:00,10:00,14:00,,,13:00,17:00,13:00,17:00,,,In the library,NA
Blaise Plant Nursery,NA,Kings Weston Road,,,Bristol,BS11 0UE,United Kingdom,51.5006499,-2.6498118,FALSE,Community Centre,,,,NA,https://www.bristol.gov.uk/web/blaise-plant-nursery,NA,NA,,,,TRUE,10:00,16:00,10:00,16:00,10:00,16:00,10:00,16:00,10:00,16:00,10:00,16:00,10:00,16:00,TBD,NA
Cotswold Community Centre,NA,Dursley Road,,,Bristol,BS11 9XH,United Kingdom,51.48535,-2.6701551,FALSE,Community Centre,,,+44 7943 401575,NA,http://www.cotswoldcommunity.btck.co.uk/,NA,NA,,,,FALSE,,,,,,,,,,,,,,,TBD,NA
Knovill Close,NA,Knovill Close,,,Bristol,BS11 0SA,United Kingdom,51.5038151,-2.6534871,FALSE,Community Centre,,,,NA,,NA,NA,,,,FALSE,,,,,,,,,,,,,,,TBD,NA
Ambition Lawrence Weston,NA,Long Cross,,,Bristol,BS11 0RX,United Kingdom,51.504905,-2.653724,FALSE,Youth Club,,,+44 117 923 5112,NA,http://www.ambitionlw.org/,https://www.facebook.com/sharer/sharer.php?u=https://www.ambitionlw.org/free-cricket-at-st-bedes/,NA,,,,TRUE,9:00,22:00,9:00,22:00,9:00,22:00,9:00,22:00,9:00,22:00,9:00,22:00,9:00,22:00,TBD,NA
The City & Port Of Bristol Social & Sports Club,NA,Nibley Road,,,Bristol,BS11 9XW,United Kingdom,51.482429,-2.6756446,FALSE,Community Centre,,,+44 117 982 3927,secretary@pbaclub.co.uk,http://www.pbaclub.co.uk/,https://www.facebook.com/pbasportsandsocial/,NA,,,,FALSE,,,,,,,,,,,,,,,TBD,NA
Sea Mills Community Centre,NA,Sunny Hill,,,Bristol,BS9 2NQ,United Kingdom,51.4914846,-2.6496531,FALSE,Community Centre,,,+44 7710 629953,seamillscommunity@gmail.com,http://seamillstogether.org.uk/community-centre/,https://www.facebook.com/seamillscommunity/,NA,,,,FALSE,,,,,,,,,,,,,,,TBD,NA
Sea Mills Library,NA,Sylvan Way,,,Bristol,BS9 2NA,United Kingdom,51.4913819,-2.6492187,TRUE,Library,FALSE,TRUE,+44 117 903 8555,seamills.library@bristol.gov.uk,http://m.bristol.gov.uk/libraryviewer?XSL=library&LibraryId=30,https://www.facebook.com/BristolLibraries/,https://twitter.com/bristollibrary,Julia Ball,,julia.ball@bristol.gov.uk,TRUE,10:00,14:00,10:00,14:00,13:00,17:00,13:00,17:00,10:00,15:00,10:00,15:00,,,In the library,NA
Shirehampton Library,NA,Station Road,,,Bristol,BS11 9TU,United Kingdom,51.4869366,-2.6756346,TRUE,Library,TRUE,TRUE,+44 117 903 8570,shirehampton.library@bristol.gov.uk,https://www.bristol.gov.uk/libraries-archives/library-finder/-/journal_content/56/20195/LIBRARY-UPRN-000000258098/LIBRARY-DISPLAY,https://www.facebook.com/BristolLibraries/,https://twitter.com/bristollibrary,Julia Ball,,julia.ball@bristol.gov.uk,TRUE,13:00,17:00,,,13:00,17:00,10:00,14:00,13:00,17:00,10:00,14:00,,,In the library,NA
Shirehampton Public Hall,NA,Station Road,,,Bristol,BS11 9TX,United Kingdom,51.4869303,-2.6754681,FALSE,Public Toilet,,,+44 117 982 9963,NA,http://www.shirepubhall.org.uk/,NA,NA,,,,FALSE,,,,,,,,,,,,,,,TBD,NA
Avonmouth Sea Cadets,NA,Station Road,,,Shirehampton,BS11 9XA,United Kingdom,51.483641,-2.68312,FALSE,Public Toilet,,,+44 117 982 3938,info@ms-sc.org,http://www.sea-cadets.org/avonmouth,https://www.facebook.com/SeaCadetsUK/,NA,,,,TRUE,18:30,21:00,,,,,18:30,21:00,,,,,,,TBD,NA
Bristol North West Foodbank,NA,Avonmouth Road,,,Bristol,BS11 9EN,United Kingdom,51.5009834,-2.6986544,FALSE,Foodbank,,,+44 117 923 5343,NA,http://bristolnorthwestfoodbank.org.uk/,https://www.facebook.com/bristolnorthwestfoodbank/,NA,,,,FALSE,,,,,,,,,,,,,,,TBD,NA
Bristol North West Foodbank,NA,Avonmouth Road,,,Bristol,BS11 9EN,United Kingdom,51.5009834,-2.6986544,FALSE,Foodbank,,,+44 117 325 8720,NA,http://bristolnorthwestfoodbank.org.uk/,https://www.facebook.com/bristolnorthwestfoodbank/,NA,,,,FALSE,,,,,,,,,,,,,,,TBD,NA
Shirehampton Group Practice,NA,Pembroke Road,Shirehampton,,Bristol,BS11 9SB,United Kingdom,51.488935,-2.6774145,TRUE,Health Centre,TRUE,TRUE,+44 117 916 2226,,http://www.shirehamptongrouppractice.co.uk/,NA,NA,Ellie Truss,,ellie.truss@nhs.net,TRUE,8:30,18:30,8:30,18:30,8:30,18:30,8:30,18:30,8:30,18:30,,,,,In waiting area,NA
Long Cross Specialist Children's Centre,NA,Long Cross,,,Bristol,BS11 0LP,United Kingdom,51.4973409,-2.6676008,FALSE,Community Centre,,,+44 117 903 0740,NA,http://www.oasisacademylongcross.org/,https://www.facebook.com/OasisAcademyLongCross/,NA,,,,FALSE,,,,,,,,,,,,,,,TBD,NA
10-12 CONISTON ROAD,NA,PATCHWAY,,,BRISTOL,BS12 5JL,United Kingdom,55.9604,-3.1767,FALSE,GP,,,,NA,https://www.conistonmedicalpractice.nhs.uk/,NA,NA,,,,FALSE,,,,,,,,,,,,,,,TBD,NA
11 Chiphouse Rd,NA,11 Chiphouse Road,,,Bristol,BS15 4TR,United Kingdom,51.4726194,-2.498018,FALSE,GP,,,,NA,,NA,NA,,,,FALSE,,,,,,,,,,,,,,,TBD,NA
129 Greville Rd,NA,129 Greville Road,,,Bristol,BS3 1LE,United Kingdom,51.442107,-2.6068942,FALSE,GP,,,,NA,,NA,NA,,,,FALSE,,,,,,,,,,,,,,,TBD,NA
14 Overnhill Rd,NA,14 Overnhill Road,,,Bristol,BS16 5DN,United Kingdom,51.4822786,-2.5130076,FALSE,GP,,,,NA,,NA,NA,,,,FALSE,,,,,,,,,,,,,,,TBD,NA
168 Locking Rd,NA,168 Locking Road,,,Weston-super-Mare,BS23 3HG,United Kingdom,51.3461039,-2.9563106,FALSE,GP,,,+44 1934 624242,NA,http://www.newcourtsurgery.nhs.uk/,NA,NA,,,,FALSE,,,,,,,,,,,,,,,TBD,NA
18 Four Acre Rd,NA,18 Four Acre Road,,,Bristol,BS16 6PG,United Kingdom,51.4989251,-2.4997089,FALSE,GP,,,,NA,http://www.leapvalleysurgery.co.uk/,NA,NA,,,,FALSE,,,,,,,,,,,,,,,TBD,NA
"19A, Hawkfield Way",NA,Osprey Court,Hawkfield Way,,Bristol,BS14 0BB,United Kingdom,51.4116174,-2.5929665,FALSE,GP,,,,NA,https://cchp.nhs.uk/cchp/visiting-cchp/osprey-court,https://www.facebook.com/SironaCIC,http://www.twitter.com/SironaCIC,,,,FALSE,,,,,,,,,,,,,,,TBD,NA
209 Wells Rd,NA,209 Wells Road,,,Bristol,BS4 2DF,United Kingdom,51.4387928,-2.5727096,FALSE,GP,,,,NA,http://www.wellsroadsurgery.co.uk/,NA,NA,,,,FALSE,,,,,,,,,,,,,,,TBD,NA
232 Milton Rd,NA,232 Milton Road,,,Weston-super-Mare,BS22 8AG,United Kingdom,51.3527707,-2.9492302,FALSE,GP,,,,NA,https://www.themiltonsurgery.co.uk/,NA,NA,,,,FALSE,,,,,,,,,,,,,,,TBD,NA
233 Wells Rd,NA,233 Wells Road,,,Bristol,BS4 2DF,United Kingdom,51.438018,-2.5715029,FALSE,GP,,,+44 117 977 0018,NA,http://www.wellsroadsurgery.co.uk/,NA,NA,,,,FALSE,,,,,,,,,,,,,,,TBD,NA
GP Care,NA,Aztec West,,,Bristol,BS32 4AQ,United Kingdom,51.5452155,-2.5715992,FALSE,GP,,,+44 333 332 2100,info@gpcare.org.uk,http://www.gpcare.org.uk/,NA,NA,,,,TRUE,8:00,18:00,8:00,18:00,8:00,18:00,8:00,18:00,8:00,18:00,,,,,TBD,NA
25 B4054,NA,25 B4054,,,Bristol,BS6,United Kingdom,51.4713421,-2.5958748,FALSE,GP,,,,NA,,NA,NA,,,,FALSE,,,,,,,,,,,,,,,TBD,NA
30 Inns Court Green,NA,30 Inns Court Green,,,Bristol,BS4 1TF,United Kingdom,51.420643,-2.5938664,FALSE,GP,,,+44 117 903 8392,NA,https://www.nhs.uk/Services/careproviders/Overview/DefaultView.aspx?id=50293,NA,NA,,,,FALSE,,,,,,,,,,,,,,,TBD,NA
Priory Surgery,NA,326 Wells Road,,,Bristol,BS4 2QJ,United Kingdom,51.4343045,-2.5660789,FALSE,GP,,,+44 117 949 3988,NA,http://www.priorysurgerybristol.co.uk/,NA,NA,,,,FALSE,,,,,,,,,,,,,,,TBD,NA
43 Nevil Rd,NA,43 Nevil Road,,,Bristol,BS7 9EG,United Kingdom,51.4785546,-2.5870713,FALSE,GP,,,+44 117 944 0701,NA,http://www.bishopstonmedicalpractice.nhs.uk/,NA,NA,,,,FALSE,,,,,,,,,,,,,,,TBD,NA
Knowle West Health Park Company,NA,5 Knowle West Health Park,Downton Road,,Bristol,BS4 1WH,United Kingdom,51.4287537,-2.5962626,FALSE,GP,,,+44 117 377 2255,NA,http://www.knowlewesthealthpark.co.uk/contact-us/,https://www.facebook.com/KWHPC?fref=ts,NA,,,,FALSE,,,,,,,,,,,,,,,TBD,NA
52 Clifton Down Rd,NA,52 Clifton Down Road,,,Bristol,BS8 4AH,United Kingdom,51.4572274,-2.6202435,FALSE,GP,,,,NA,,NA,NA,,,,FALSE,,,,,,,,,,,,,,,TBD,NA
521 Filton Ave,NA,521 Filton Avenue,,,Bristol,BS7 0LS,United Kingdom,51.5008294,-2.5701905,FALSE,GP,,,,media.team@cqc.org.uk,https://www.cqc.org.uk/location/1-2492282537/contact,http://www.facebook.com/sharer/sharer.php?u=https%,NA,,,,FALSE,,,,,,,,,,,,,,,TBD,NA
"2DT, 58 Pembroke Rd",NA,58 Pembroke Road,,,Bristol,BS8 3DT,United Kingdom,51.4612054,-2.6157794,FALSE,GP,,,,NA,https://www.pembrokeroadsurgery.co.uk/,NA,NA,,,,FALSE,,,,,,,,,,,,,,,TBD,NA
58 Pembroke Rd,NA,58 Pembroke Road,,,Bristol,BS8 3DT,United Kingdom,51.4612054,-2.6157794,FALSE,GP,,,,NA,https://www.pembrokeroadsurgery.co.uk/,NA,NA,,,,FALSE,,,,,,,,,,,,,,,TBD,NA
59-61 Stokes Croft,NA,59-61 Stokes Croft,,,Bristol,BS1 3QP,United Kingdom,51.4622873,-2.59045,FALSE,GP,,,,NA,https://www.nhs.uk/Services/clinics/MapsAndDirections/DefaultView.aspx?id=46121,NA,NA,,,,FALSE,,,,,,,,,,,,,,,TBD,NA
590 Wells Rd,NA,590 Wells Road,,,Bristol,BS14 9BD,United Kingdom,51.4206383,-2.5607066,FALSE,GP,,,,NA,,NA,NA,,,,FALSE,,,,,,,,,,,,,,,TBD,NA
South Plaza,NA,South Plaza,Marlborough Street,,Bristol,BS1 3NX,United Kingdom,51.4598273,-2.5916089,FALSE,GP,,,+44 117 992 2651,NA,http://www.gva.co.uk/property/7/,NA,NA,,,,FALSE,,,,,,,,,,,,,,,TBD,NA
Air Balloon Surgery,NA,Kenn Road,,,Bristol,BS5 7PD,United Kingdom,51.4588837,-2.5324711,FALSE,GP,,,+44 117 909 9912,NA,http://www.airballoonsurgery.co.uk/,NA,NA,,,,TRUE,8:00,19:30,8:00,19:30,8:00,19:30,8:00,19:30,8:00,18:30,8:30,10:30,,,TBD,NA
Almondsbury Surgery,NA,Sundays Hill,,,Bristol,BS32 4DS,United Kingdom,51.5539077,-2.5737389,FALSE,GP,,,+44 1454 613161,NA,http://www.almondsburysurgery.nhs.uk/,NA,NA,,,,TRUE,8:30,19:00,8:30,19:30,8:30,18:00,8:30,19:00,8:30,18:00,,,,,TBD,NA
Backwell Medical Centre,NA,15 West Town Road,,,Bristol,BS48 3HA,United Kingdom,51.413236,-2.7403141,FALSE,GP,,,+44 1275 465100,bnssg.researchtmg@nhs.net,https://www.towerhouse.nhs.uk/,https://www.facebook.com/TyntesfieldMedicalGP/,NA,,,,TRUE,8:00,18:30,8:00,18:30,8:00,18:30,8:00,18:30,8:00,18:30,,,,,TBD,NA
Bedminster Family Practice,NA,Regent Road,,,Bristol,BS3 4AT,United Kingdom,51.4443838,-2.5939944,FALSE,GP,,,+44 117 966 3149,NA,http://www.bedminsterfamilypractice.co.uk/,NA,NA,,,,TRUE,8:30,18:30,8:30,18:30,8:30,18:30,8:30,18:30,8:30,18:30,8:00,17:30,,,TBD,NA
Birchwood Medical Practice,NA,Wick Road,,,Bristol,BS4 4HU,United Kingdom,51.4461443,-2.5472323,FALSE,GP,,,+44 117 330 4225,NA,http://www.birchwoodbristol.nhs.uk/,https://www.facebook.com/birchwoodbristol,NA,,,,TRUE,8:00,18:30,8:00,18:30,8:00,18:30,8:00,18:30,8:00,18:30,,,,,TBD,NA
Boots,NA,59 Broadmead,,,Bristol,BS1 3EA,United Kingdom,51.4572095,-2.5895013,FALSE,GP,,,+44 117 929 3631,NA,https://www.boots.com/?utm_source=google-maps&utm_medium=google-maps&utm_campaign=google-maps,https://www.facebook.com/BootsOfficialUK,NA,,,,TRUE,8:00,20:00,8:00,20:00,8:00,20:00,8:00,20:00,8:00,20:00,8:00,20:00,11:00,17:00,TBD,NA
Bradley Stoke Surgery,NA,Bradley Stoke Surgery,Brook Way,,Bristol,BS32 9DA,United Kingdom,51.5409361,-2.5595089,FALSE,GP,,,+44 1454 616262,NA,https://www.bradleystokesurgery.nhs.uk/,NA,NA,,,,FALSE,,,,,,,,,,,,,,,TBD,NA
The Bridewell Police Station - Avon and Somerset Police,NA,One Bridewell Street,Bridewell Street,,Bristol,BS1 2AA,United Kingdom,51.4575052,-2.5933689,FALSE,GP,,,+44 1275 818340,NA,https://www.avonandsomerset.police.uk/contact-us/police-stations/the-bridewell-police-station/,https://www.facebook.com/avonandsomersetpolice,NA,,,,FALSE,,,,,,,,,,,,,,,TBD,NA
Broadmead Medical Centre,NA,59 Broadmead,,,Bristol,BS1 3EA,United Kingdom,51.4572209,-2.5895062,FALSE,GP,,,+44 117 954 9828,NA,http://www.broadmeadmedicalcentre.nhs.uk/,NA,NA,,,,TRUE,8:00,20:00,8:00,20:00,8:00,20:00,8:00,20:00,8:00,20:00,8:00,20:00,11:00,17:00,TBD,NA
Dr J Rees - Brockway Medical Centre,NA,8 Brockway,,,Bristol,BS48 1BZ,United Kingdom,51.433076,-2.7552789,FALSE,GP,,,+44 1275 850600,NA,https://www.nhs.uk/Services/GP/Staff/DefaultView.aspx?id=36823,NA,NA,,,,FALSE,,,,,,,,,,,,,,,TBD,NA
1 Unity St,NA,1 Unity Street,,,Bristol,BS1 5HH,United Kingdom,51.4533637,-2.6009724,FALSE,GP,,,,NA,,NA,NA,,,,FALSE,,,,,,,,,,,,,,,TBD,NA
BROOK CLINIC,NA,25-27 DENMARK STREET,,,BRISTOL,BS1 5DQ,United Kingdom,51.453,-2.5987,FALSE,GP,,,,NA,,NA,NA,,,,FALSE,,,,,,,,,,,,,,,TBD,NA
C/O COALPIT HEATH SURGERY,NA,"3 CHURCH LANE,COALPIT HTH",,,BRISTOL,BS36 2SR,United Kingdom,51.526,-2.4702,FALSE,GP,,,+44 1454 772150,NA,https://www.westwalksurgery.co.uk/,NA,NA,,,,FALSE,,,,,,,,,,,,,,,TBD,NA
Orchard Medical Centre,NA,MacDonald Walk,,,Bristol,BS15 8NJ,United Kingdom,51.461974,-2.51047,FALSE,GP,,,+44 117 980 5100,suggestions@siliconpractice.co.uk,http://www.orchardmedicalcentre.co.uk/,https://www.facebook.com/carerstrust/,NA,,,,TRUE,8:00,18:00,8:00,18:00,8:00,18:00,8:00,18:00,8:00,18:00,8:00,13:00,,,TBD,NA
Maytrees Practice,NA,100A Fishponds Road,,,Bristol,BS5 6SA,United Kingdom,51.470411,-2.562747,FALSE,GP,,,+44 117 244 4123,NA,http://www.maytreespractice.com/,NA,NA,,,,TRUE,8:00,19:00,8:00,19:00,8:00,18:30,8:00,18:30,8:00,18:30,,,,,TBD,NA
Cadbury Heath Healthcare,NA,Parkwall Road,,,Bristol,BS30 8HS,United Kingdom,51.4471338,-2.4883423,FALSE,GP,,,+44 117 980 5705,cadburyheath.healthcare@nhs.netÔªø,http://www.cadburyheathhealthcare.co.uk/,NA,NA,,,,TRUE,8:00,18:30,8:00,18:30,8:00,18:30,8:00,18:30,8:00,18:30,,,,,TBD,NA
Charlotte Keel Medical Practice,NA,77 Seymour Road,,,Bristol,BS5 0UA,United Kingdom,51.4658447,-2.5713621,FALSE,GP,,,+44 117 902 7145,NA,http://www.charlottekeelmedical.co.uk/,NA,NA,,,,TRUE,8:30,18:30,13:30,18:30,13:30,18:30,13:30,18:30,13:30,18:30,,,,,TBD,NA
Chew Medical Practice,NA,Chew Lane,,,Bristol,BS40 8UE,United Kingdom,51.3555326,-2.6303462,FALSE,GP,,,+44 1275 332420,NA,http://www.chewmedicalpractice.co.uk/,NA,NA,,,,TRUE,8:00,18:00,8:00,18:00,8:00,19:30,8:00,18:00,8:00,18:00,9:00,12:00,,,TBD,NA
Christchurch Family Medical Practice,NA,North Street,,,Bristol,BS16 5SG,United Kingdom,51.4854142,-2.5054555,FALSE,GP,,,+44 117 970 8950,NA,http://www.christchurchfamilymedicalcentre.com/,NA,NA,,,,TRUE,8:00,18:45,7:30,18:45,7:30,18:45,7:30,18:45,7:30,18:45,8:30,11:45,8:30,11:45,TBD,NA
1 Church Rd,NA,1 Church Road,,,Bristol,BS15 4AU,United Kingdom,51.4627723,-2.5037792,FALSE,GP,,,,NA,,NA,NA,,,,FALSE,,,,,,,,,,,,,,,TBD,NA
Clevedon Medical Centre,NA,Clevedon Medical Centre,Old Street,,Clevedon,BS21 6DG,United Kingdom,51.437275,-2.845745,FALSE,GP,,,+44 1275 335666,NA,http://www.clevedonmc.nhs.uk/,NA,NA,,,,TRUE,8:30,18:30,8:30,18:30,8:30,18:30,8:30,18:30,8:30,18:30,,,,,TBD,NA
Amelia Nutt Clinic,NA,Queen's Road,,,Bristol,BS13 8QA,United Kingdom,51.4079707,-2.622144,FALSE,GP,,,+44 117 987 8301,NA,https://www.nhs.uk/services/clinics/mapsanddirections/defaultview.aspx?id=115015,NA,NA,,,,FALSE,,,,,,,,,,,,,,,TBD,NA
The Homeless Health Service,NA,The Compass Centre,1 Jamaica Street,,Bristol,BS2 8JP,United Kingdom,51.4617968,-2.5918022,FALSE,GP,,,+44 117 944 0581,NA,http://homelesshealthservice.co.uk/,NA,NA,,,,TRUE,8:00,20:00,8:00,20:00,8:00,20:00,8:00,20:00,8:00,20:00,8:00,20:00,10:00,18:00,TBD,NA
Concord Medical Centre,NA,Braydon Avenue,,,Bristol,BS34 6BQ,United Kingdom,51.5295059,-2.5548738,FALSE,GP,,,+44 1454 616767,concordmedicalcentre@nhs.net,http://www.concordmedicalcentre.co.uk/,https://www.facebook.com/ConcordMedicalCentre?ref=hl,NA,,,,TRUE,8:00,19:30,8:00,18:30,8:00,18:30,8:00,18:30,8:00,18:30,8:30,12:30,,,TBD,NA
Corbet Close,NA,Corbet Close,,,Bristol,BS11 0TA,United Kingdom,51.5063848,-2.6496233,FALSE,GP,,,,NA,,NA,NA,,,,FALSE,,,,,,,,,,,,,,,TBD,NA
Corum Office Park,NA,Crown Way,,,Bristol,BS30 8FJ,United Kingdom,51.4576883,-2.4758686,FALSE,GP,,,,NA,,NA,NA,,,,FALSE,,,,,,,,,,,,,,,TBD,NA
Courtside Surgery,NA,Kennedy Way,,,Bristol,BS37 4DQ,United Kingdom,51.538977,-2.4150604,FALSE,GP,,,+44 1454 313874,NA,http://www.courtside.nhs.uk/,NA,NA,,,,TRUE,8:00,20:00,8:30,20:00,8:00,19:00,8:00,20:00,8:00,19:00,,,,,TBD,NA
Downend Clinic,NA,Buckingham Gardens,,,Bristol,BS16 5TW,United Kingdom,51.4883852,-2.4996685,FALSE,GP,,,+44 117 330 2505,NA,http://www.willowsurgery.co.uk/pregnant.htm,NA,NA,,,,TRUE,9:00,17:00,9:00,17:00,9:00,17:00,9:00,17:00,9:00,17:00,9:00,17:00,9:00,17:00,TBD,NA
Eastgate Centre,NA,Eastgate Centre,,,Bristol,BS5 6XX,United Kingdom,51.4735402,-2.5675933,FALSE,GP,,,,infoservices@thecareforum.org.uk,https://www.wellaware.org.uk/organisation/children-looked-after-nurses-bristol/,https://www.facebook.com/WellAwaresouthwest,NA,,,,FALSE,,,,,,,,,,,,,,,TBD,NA
Community Childrens Health Partnership,NA,Eastgate Centre,,,Bristol,BS5 6XX,United Kingdom,51.4737863,-2.5681724,FALSE,GP,,,+44 117 340 8063,NA,http://cchp.nhs.uk/,https://www.facebook.com/SironaCIC,http://www.twitter.com/SironaCIC,,,,TRUE,9:00,17:00,9:00,17:00,9:00,17:00,9:00,17:00,9:00,17:00,,,,,TBD,NA
Eastville Medical Practice,NA,Eastgate Centre,,,Bristol,BS5 6SA,United Kingdom,51.470411,-2.562747,FALSE,GP,,,+44 117 244 4123,NA,http://www.eastvillemedicalpractice.co.uk/,NA,NA,,,,TRUE,8:00,19:30,7:30,18:30,8:00,18:30,8:00,18:30,8:00,18:30,,,,,TBD,NA
Eastville Park,NA,Fishponds Road,,,Bristol,BS5 6XA,United Kingdom,51.4753453,-2.556363,FALSE,GP,,,+44 117 922 2000,NA,https://www.bristol.gov.uk/museums-parks-sports-culture/eastville-park,NA,NA,,,,TRUE,,,,,,,,,,,,,0:00,,TBD,NA
Elm Hayes Surgery,NA,Clandown Road,,,Bristol,BS39 7SF,United Kingdom,51.2992894,-2.4939726,FALSE,GP,,,+44 1761 413155,blue_badge@bathnes.gov.uk,http://www.elmhayessurgery.co.uk/,NA,NA,,,,TRUE,8:00,19:30,8:00,18:00,8:00,18:00,8:00,18:00,8:00,18:00,,,,,TBD,NA
Fallodon Way Medical Centre,NA,13 Fallodon Way,,,Bristol,BS9 4HT,United Kingdom,51.4832635,-2.6105437,FALSE,GP,,,+44 117 962 4692,bnssg.fwmcpatients@nhs.net,http://www.fwmc.org.uk/,NA,NA,,,,TRUE,8:00,18:30,8:00,18:30,8:00,18:30,8:00,18:30,14:30,18:30,,,,,TBD,NA
The Fishponds Family Practice,NA,Beechwood Road,,,Bristol,BS16 3TD,United Kingdom,51.4799937,-2.5264431,FALSE,GP,,,+44 117 908 2365,brccg.fishponds-enquiries@nhs.net,http://www.thefishpondsfamilypractice.nhs.uk/,NA,NA,,,,TRUE,7:30,19:00,7:30,19:00,7:30,19:00,7:30,19:00,7:30,18:30,,,,,TBD,NA
Fishponds Health Centre,NA,Fishponds Health Centre,Beechwood Road,,Bristol,BS16 3TD,United Kingdom,51.4797627,-2.5268295,FALSE,GP,,,,brccg.fishponds-enquiries@nhs.net,https://www.thefishpondsfamilypractice.nhs.uk/,NA,NA,,,,FALSE,,,,,,,,,,,,,,,TBD,NA
Gaywood House Surgery,NA,Gaywood House,North Street,,Bristol,BS3 3AZ,United Kingdom,51.440016,-2.6059792,FALSE,GP,,,+44 117 966 1412,brccg.bridgeviewmedical@nhs.net?subject=Contact%20From%20Bridge%20View%20Medical%20Website,http://www.gaywoodhousesurgery.nhs.uk/,https://www.facebook.com/bridgeviewmedical,NA,,,,TRUE,8:30,18:30,8:30,18:30,8:30,18:30,8:30,18:30,8:30,18:30,,,,,TBD,NA
Gloucester Road Medical Centre,NA,1A Church Road,,,Bristol,BS7 8SA,United Kingdom,51.4851285,-2.586894,FALSE,GP,,,+44 117 949 7774,NA,http://www.grmc.nhs.uk/,http://www.facebook.com/grmc.nhs,NA,,,,TRUE,8:00,19:00,8:00,19:00,8:00,19:00,8:00,19:00,8:00,18:30,8:00,11:00,,,TBD,NA
Grange Road Surgery,NA,Grange Road,,,Bristol,BS13 8LD,United Kingdom,51.4134923,-2.6196639,FALSE,GP,,,+44 117 964 4343,zuleika.gregory@oasis-talk.org,http://www.grangeroadsurgery.co.uk/,NA,NA,,,,TRUE,8:30,18:30,8:30,18:30,8:30,18:30,8:30,18:30,8:30,18:30,,,,,TBD,NA
Greenway Community Practice,NA,Greystoke Avenue,,,Bristol,BS10 6AF,United Kingdom,51.4993757,-2.6105509,FALSE,GP,,,+44 117 959 8939,NA,http://www.greenwaycommunitypractice.nhs.uk/,https://www.facebook.com/BNSSGCCG/,NA,,,,TRUE,8:00,19:00,8:00,19:00,8:00,19:00,8:00,19:00,8:00,18:30,,,,,TBD,NA
Hampton House,NA,Hampton House,,,Bristol,BS8,United Kingdom,51.462045,-2.6038606,FALSE,GP,,,,NA,http://www.bristol.ac.uk/students-health/contact/,https://www.facebook.com/pages/University-of-Bristol-Students-Health-Service/,NA,,,,FALSE,,,,,,,,,,,,,,,TBD,NA
Hanham Health,NA,33 Whittucks Road,,,Bristol,BS15 3PJ,United Kingdom,51.4435385,-2.5120098,FALSE,GP,,,+44 117 935 2318,NA,http://www.hanhamhealth.co.uk/,https://www.facebook.com/pages/Hanham-Health/,NA,,,,TRUE,8:00,18:30,8:00,18:30,8:00,18:30,8:00,18:30,8:00,18:30,,,,,TBD,NA
Somerfield Lisa,NA,Bristol Road,,,Bristol,BS40 6HF,United Kingdom,51.3103521,-2.6321858,FALSE,GP,,,+44 1761 221869,NA,http://www.harptreedentalsurgery.co.uk/,https://www.facebook.com/sharer.php?u=https%,NA,,,,FALSE,,,,,,,,,,,,,,,TBD,NA
Hartcliffe Health Centre,NA,Hareclive Road,,,Bristol,BS13 0JP,United Kingdom,51.4075933,-2.6013179,FALSE,GP,,,+44 117 301 5226,NA,http://www.nhs.uk/Services/GP/Overview/DefaultView.aspx?id=36384,NA,NA,,,,TRUE,13:30,18:30,13:30,18:30,13:30,18:30,13:30,18:30,13:30,18:30,,,,,TBD,NA
Hartwood Healthcare,NA,Hareclive Road,,,Bristol,BS13 0JP,United Kingdom,51.4076383,-2.6018607,FALSE,GP,,,+44 117 301 5226,zuleika.gregory@oasis-talk.org,http://www.hartwood.nhs.uk/,NA,NA,,,,TRUE,8:00,18:30,8:00,18:30,8:00,18:30,8:00,18:30,8:00,18:30,,,,,TBD,NA
Heywood Family Practice,NA,1 Lodway Gardens,,,Bristol,BS20 0DL,United Kingdom,51.480381,-2.6898,FALSE,GP,,,+44 1275 372105,richard.harrison@nhs.net,http://www.heywoodfamilypractice.nhs.uk/,NA,NA,,,,TRUE,8:00,19:00,8:00,19:00,8:00,19:00,8:00,18:30,8:00,19:00,,,,,TBD,NA
HM Prison Ashfield,NA,Shortwood Road,,,Bristol,BS16 9QJ,United Kingdom,51.4818316,-2.4390737,FALSE,GP,,,+44 117 303 8000,NA,http://www.justice.gov.uk/contacts/prison-finder/ashfield,NA,NA,,,,TRUE,,,,,,,,,14:00,17:00,14:00,17:00,14:00,17:00,TBD,NA
HMP Bristol,NA,19 Cambridge Road,,,Bristol,BS7 8PS,United Kingdom,51.4805314,-2.5906347,FALSE,GP,,,+44 117 372 3100,NA,http://www.justice.gov.uk/contacts/prison-finder/bristol,NA,NA,,,,TRUE,9:00,17:00,9:00,17:00,9:00,17:00,,,9:00,17:00,9:00,17:00,9:00,17:00,TBD,NA
Horfield Health Centre,NA,Lockleaze Road,,,Bristol,BS7 9RR,United Kingdom,51.490028,-2.576755,FALSE,GP,,,+44 117 969 5391,NA,http://www.horfieldhealthcentre.nhs.uk/,https://www.facebook.com/search/top/?q=horfield%,NA,,,,TRUE,8:00,18:30,8:00,18:30,8:00,18:30,8:00,18:30,8:00,18:30,8:30,12:00,,,TBD,NA
Hotwells Surgery,NA,2-3 Charles Place,,,Bristol,BS8 4QW,United Kingdom,51.4498472,-2.6188113,FALSE,GP,,,+44 117 929 4334,NA,http://www.nhs.uk/Services/GP/Overview/DefaultView.aspx?id=43276,NA,NA,,,,FALSE,,,,,,,,,,,,,,,TBD,NA
The John Milton Clinic,NA,2-3 Charles Place,,,Bristol,BS10 7DP,United Kingdom,51.5091941,-2.6188086,FALSE,GP,,,+44 117 950 0844,NA,https://www.nhs.uk/Services/clinics/MapsAndDirections/DefaultView.aspx?id=115616,NA,NA,,,,FALSE,,,,,,,,,,,,,,,TBD,NA
Kennedy Way Surgery,NA,Kennedy Way,,,Bristol,BS37 4AA,United Kingdom,51.5396062,-2.4150922,FALSE,GP,,,+44 1454 313849,kws.kws@nhs.net,http://www.kennedywaysurgery.co.uk/,https://www.facebook.com/kennedywaysurgery,NA,,,,TRUE,7:30,18:30,8:00,18:30,7:30,18:30,7:30,18:30,7:30,18:30,,,,,TBD,NA
Kings Centre,NA,16-18 King Square,,,Bristol,BS2 8JL,United Kingdom,51.4620002,-2.592116,FALSE,GP,,,,media.team@cqc.org.uk,https://www.cqc.org.uk/location/1-2495281460/contact,http://www.facebook.com/sharer/sharer.php?u=https%,NA,,,,FALSE,,,,,,,,,,,,,,,TBD,NA
Kingswood Health Centre,NA,Alma Road,,,Bristol,BS15 4EJ,United Kingdom,51.4630039,-2.4999376,FALSE,GP,,,+44 117 301 2080,NA,http://www.kingswoodhealthcentre.co.uk/,NA,NA,,,,TRUE,8:00,18:30,8:00,18:30,8:00,18:30,8:00,18:30,8:00,18:30,,,,,TBD,NA
Kingswood Hub,NA,Alma Road,,,Bristol,BS15 4DA,United Kingdom,51.4628778,-2.50072,FALSE,GP,,,+44 1454 862433,NA,https://cchp.nhs.uk/cchp/visiting-cchp/kingswood-locality-hub,https://www.facebook.com/SironaCIC,http://www.twitter.com/SironaCIC,,,,TRUE,8:30,17:00,8:30,17:00,8:30,17:00,8:30,17:00,8:30,16:30,,,,,TBD,NA
knowle west health park,NA,knowle west health park,,,Bristol,BS4,United Kingdom,51.4288813,-2.5952978,FALSE,GP,,,,info@knowlewesthealthpark.co.uk,https://www.knowlewesthealthpark.co.uk/,https://www.facebook.com/KWHPC?fref=ts,NA,,,,FALSE,,,,,,,,,,,,,,,TBD,NA
Mendip Vale Medical Practice (Langford),NA,Pudding Pie Lane,,,Bristol,BS40 5EL,United Kingdom,51.3418151,-2.7883927,FALSE,GP,,,+44 1934 839820,NA,http://www.mendipvale.nhs.uk/,https://www.facebook.com/mvmgGP/,NA,,,,TRUE,8:00,18:30,6:00,18:30,8:00,18:30,8:00,18:30,8:00,18:30,8:30,12:30,,,TBD,NA
Lawrence Hill Health Centre,NA,Hassell Drive,,,Bristol,BS2 0AN,United Kingdom,51.4575421,-2.5719773,FALSE,GP,,,+44 117 954 3060,NA,http://www.lawrencehillhealthcentre.co.uk/,NA,NA,,,,TRUE,8:00,18:30,8:00,18:30,8:00,18:30,8:00,18:30,8:00,18:30,,,,,TBD,NA
Leap Valley Surgery,NA,48 Beaufort Road,,,Bristol,BS16 6UG,United Kingdom,51.4963223,-2.489525,FALSE,GP,,,+44 117 956 2979,NA,http://www.leapvalleysurgery.co.uk/,NA,NA,,,,TRUE,8:00,18:30,8:00,18:30,8:00,18:30,8:00,18:30,8:00,18:30,,,,,TBD,NA
Litfield House Medical Centre,NA,Litfield Place,,,Bristol,BS8 3LS,United Kingdom,51.4574459,-2.6227446,FALSE,GP,,,+44 117 973 1323,NA,https://www.litfieldhouse.co.uk/,NA,NA,,,,TRUE,8:30,18:00,8:30,20:00,8:30,18:00,8:30,18:00,8:30,18:00,9:00,13:00,,,TBD,NA
Monks Park Surgery,NA,24 Monks Park Avenue,,,Bristol,BS7 0UE,United Kingdom,51.4976919,-2.5833843,FALSE,GP,,,+44 117 375 5376,NA,http://www.monksparksurgery.nhs.uk/,https://www.facebook.com/monksparksurgery/?ref=aymt_homepage_panel,NA,,,,TRUE,7:30,18:30,7:30,18:30,8:30,19:30,8:30,18:30,8:30,18:30,9:00,12:00,,,TBD,NA
Montpelier Health Centre,NA,24 Monks Park Avenue,,,Bristol,BS6 5PT,United Kingdom,51.4669826,-2.5893549,FALSE,GP,,,+44 117 942 6811,NA,https://www.montpelierhealthcentre.co.uk/,NA,NA,,,,TRUE,8:00,18:30,7:30,18:30,14:00,18:30,7:30,20:00,8:00,18:30,9:00,12:00,,,TBD,NA
Bristol North CLDT,NA,New Friends Hall,Heath House Lane,,Bristol,BS16 1EQ,United Kingdom,51.4831173,-2.5582322,FALSE,GP,,,+44 117 908 5000,NA,http://briscomhealth.org.uk/our-services/community-learning-disabilities-team-cldt/,NA,NA,,,,FALSE,,,,,,,,,,,,,,,TBD,NA
North Street,NA,North Street,,,Bristol,BS16 5SG,United Kingdom,51.485077,-2.5054778,FALSE,GP,,,,NA,https://www.downendhealthgroup.com/,NA,NA,,,,FALSE,,,,,,,,,,,,,,,TBD,NA
Northville Family Practice,NA,521 Filton Avenue,,,Bristol,BS7 0LS,United Kingdom,51.5007989,-2.5700503,FALSE,GP,,,+44 117 969 2164,NA,http://www.northvillefamilypractice.nhs.uk/staff1.aspx,NA,NA,,,,TRUE,8:00,18:00,8:00,18:00,8:00,18:00,7:30,18:30,8:00,18:30,,,,,TBD,NA
Patchway Clinic,NA,Thirlmere Road,,,Patchway,BS34 5PD,United Kingdom,51.5311721,-2.5758214,FALSE,GP,,,+44 117 969 2370,NA,https://www.nhs.uk/Services/clinics/MapsAndDirections/DefaultView.aspx?id=100515,NA,NA,,,,TRUE,8:30,17:00,8:30,17:00,8:30,17:00,8:30,17:00,8:30,17:00,,,,,TBD,NA
Paulton Memorial Hospital,NA,Salisbury Road,,,Bristol,BS39 7SB,United Kingdom,51.298687,-2.4932671,FALSE,GP,,,+44 1761 412315,NA,https://www.nhs.uk/Services/hospitals/Overview/DefaultView.aspx?id=789,NA,NA,,,,TRUE,8:00,21:15,8:00,21:15,8:00,21:15,8:00,21:15,8:00,21:15,8:00,21:15,8:00,21:15,TBD,NA
Pembroke Road Surgery,NA,111A Pembroke Road,,,Bristol,BS8 3EU,United Kingdom,51.4640686,-2.6180354,FALSE,GP,,,+44 117 973 3790,NA,http://www.pembrokeroadsurgery.co.uk/,NA,NA,,,,TRUE,8:00,18:30,8:00,19:00,8:00,19:00,8:00,18:30,8:00,18:30,,,,,TBD,NA
The Pilning Surgery,NA,111A Pembroke Road,,,Bristol,BS35 4JF,United Kingdom,51.564119,-2.6412057,FALSE,GP,,,+44 1454 632393,NA,http://www.pilningsurgery.co.uk/,NA,NA,,,,TRUE,8:30,18:15,8:30,18:15,7:30,18:15,7:30,17:00,8:30,18:15,,,,,TBD,NA
Portishead Health Centre,NA,Victoria Square,,,Bristol,BS20 6AQ,United Kingdom,51.4824483,-2.76765,FALSE,GP,,,+44 1275 841630,NA,http://www.pmg.org.uk/,NA,NA,,,,TRUE,8:00,18:30,8:00,20:00,8:00,20:00,8:00,18:30,8:00,18:30,,,,,TBD,NA
Prime Endoscopy Bristol,NA,8 Millennium Promenade,,,Bristol,BS1 5TY,United Kingdom,51.4498633,-2.6030999,FALSE,GP,,,+44 117 910 3790,NA,http://www.primeendoscopybristol.co.uk/,NA,NA,,,,FALSE,,,,,,,,,,,,,,,TBD,NA
PUBLIC HEALTH BUS TEAM,NA,"AVONQUAY,CUMBERLAND BASIN",,,BRISTOL,BS1 6XL,United Kingdom,51.4479,-2.6177,FALSE,GP,,,,NA,,NA,NA,,,,FALSE,,,,,,,,,,,,,,,TBD,NA
Pucklechurch Surgery,NA,12 Becket Court,,,Bristol,BS16 9QG,United Kingdom,51.4837117,-2.4369228,FALSE,GP,,,+44 117 937 2350,NA,https://www.threeshiresmedical.co.uk/,NA,NA,,,,FALSE,,,,,,,,,,,,,,,TBD,NA
South Bristol Community Hospital,NA,Hengrove Promenade,,,Bristol,BS14 0DE,United Kingdom,51.4127377,-2.5831508,FALSE,GP,,,+44 117 923 0000,NA,http://www.uhbristol.nhs.uk/patients-and-visitors/your-hospitals/south-bristol-community-hospital/,http://www.facebook.com/pages/University-Hospitals-Bristol-NHS-Foundation-Trust/,NA,,,,TRUE,8:00,20:00,8:00,20:00,8:00,20:00,8:00,20:00,8:00,20:00,8:00,20:00,8:00,20:00,TBD,NA
Salisbury Road,NA,Salisbury Road,,,Bristol,BS39 7SB,United Kingdom,51.2990457,-2.4942637,FALSE,GP,,,,NA,https://www.nhs.uk/Services/hospitals/MapsAndDirections/DefaultView.aspx?id=789,NA,NA,,,,FALSE,,,,,,,,,,,,,,,TBD,NA
Sea Mills Surgery,NA,Sea Mills Surgery,2 Riverleaze,,Bristol,BS9 2HL,United Kingdom,51.4851793,-2.6500109,FALSE,GP,,,+44 117 968 1182,NA,https://www.seamillssurgery.nhs.uk/,NA,NA,,,,TRUE,8:00,18:30,8:00,18:30,8:00,18:30,8:00,18:30,8:00,18:30,,,,,TBD,NA
Shirehampton Group Practice,NA,Pembroke Road,,,Bristol,BS11 9SB,United Kingdom,51.488935,-2.6774145,FALSE,GP,,,+44 117 916 2226,NA,http://www.shirehamptongrouppractice.co.uk/,NA,NA,,,,TRUE,8:30,18:30,8:30,18:30,8:30,18:30,8:30,18:30,8:30,18:30,,,,,TBD,NA
Sirona Care & Health CIC,NA,Kingswood Civic Centre,High Street,,Bristol,BS15 9TR,United Kingdom,51.4623929,-2.5019447,FALSE,GP,,,+44 1225 831400,NA,https://www.sirona-cic.org.uk/,NA,NA,,,,TRUE,9:00,17:00,9:00,17:00,9:00,17:00,9:00,17:00,9:00,17:00,,,,,TBD,NA
Southmead Health Centre,NA,Southmead Health Centre,Marlborough Street,,Bristol,BS10 6DF,United Kingdom,51.5046694,-2.6015362,FALSE,GP,,,,NA,https://www.southmeadhealth.nhs.uk/contact1.aspx,NA,NA,,,,FALSE,,,,,,,,,,,,,,,TBD,NA
Southmead Hospital,NA,Southmead Road,,,Bristol,BS10 5NB,United Kingdom,51.4968176,-2.5916111,FALSE,GP,,,+44 117 950 5050,NA,http://www.nbt.nhs.uk/our-hospitals/southmead-hospital,http://www.facebook.com/NorthBristolNHSTrust,http://www.twitter.com/NorthBristolNHS,,,,TRUE,,,,,,,,,,,,,0:00,,TBD,NA
Saint George Health Centre,NA,Saint George Health Centre,Bellevue Road,,Bristol,BS5 7PH,United Kingdom,51.4606087,-2.5286328,FALSE,GP,,,,support@patientaccess.com,http://www.stgeorgehealthcentre.nhs.uk/,NA,NA,,,,FALSE,,,,,,,,,,,,,,,TBD,NA
Dr L Ward - Crest Family Practice St Johns Lane Health Centre,NA,St Johns Lane Health Centre,Saint John's Lane,,Bristol,BS3 5AS,United Kingdom,51.4362069,-2.5888049,FALSE,GP,,,+44 117 953 6677,NA,http://www.crestfamilypractice.co.uk/,NA,NA,,,,FALSE,,,,,,,,,,,,,,,TBD,NA
Saint Lukes Close,NA,Saint Lukes Close,,,Bristol,BS16 7AL,United Kingdom,51.4926448,-2.4763927,FALSE,GP,,,,NA,https://www.emersonsgreenmedicalcentre.nhs.uk/home/,https://www.facebook.com/NHSwebsite,NA,,,,FALSE,,,,,,,,,,,,,,,TBD,NA
St Peter's Hospice,NA,Charlton Road,,,Bristol,BS10 6NL,United Kingdom,51.5051039,-2.6109119,FALSE,GP,,,+44 117 915 9400,NA,https://www.stpetershospice.org.uk/,http://www.facebook.com/stpetershospice,NA,,,,TRUE,9:00,17:00,9:00,17:00,9:00,17:00,9:00,17:00,9:00,17:00,9:00,17:00,,,TBD,NA
St Augustine's Medical Practice - Keynsham Surgery,NA,The Chocolate Factory,Via Traversus,,Bristol,BS31 2GN,United Kingdom,51.4230312,-2.494438,FALSE,GP,,,+44 117 986 2343,NA,http://www.st-augustinessurgery.co.uk/,NA,NA,,,,TRUE,8:00,18:00,8:00,18:00,8:00,18:00,8:00,18:00,8:00,18:00,,,,,TBD,NA
St Martins Surgery,NA,378 Wells Road,,,Bristol,BS4 2QR,United Kingdom,51.4310508,-2.5645131,FALSE,GP,,,+44 117 977 5641,media.team@cqc.org.uk,https://www.cqc.org.uk/location/1-1901174985/contact,http://www.facebook.com/sharer/sharer.php?u=https%,NA,,,,FALSE,,,,,,,,,,,,,,,TBD,NA
University of Bristol Student Health Service,NA,Saint Michael's Hill,,,Bristol,BS6 6AU,United Kingdom,51.462045,-2.6038606,FALSE,GP,,,+44 117 330 2720,NA,http://www.bristol.ac.uk/students-health/,https://www.facebook.com/pages/University-of-Bristol-Students-Health-Service/,NA,,,,TRUE,8:45,19:45,8:45,17:30,8:45,17:30,8:45,19:45,8:45,17:30,9:00,12:00,,,TBD,NA
Sunnyside Surgery,NA,4 Sunnyside Road,,,Clevedon,BS21 7TA,United Kingdom,51.4384313,-2.858641,FALSE,GP,,,+44 1275 873588,NA,https://www.nhs.uk/Services/GP/Overview/DefaultView.aspx?id=35771,NA,NA,,,,TRUE,8:00,18:30,8:00,18:30,8:00,18:30,8:00,18:30,8:00,18:30,,,,,TBD,NA
Sussex Place Surgery,NA,63 Sussex Place,,,Bristol,BS2 9QR,United Kingdom,51.4684004,-2.5796681,FALSE,GP,,,+44 117 955 6275,NA,http://www.nhs.uk/ServiceDirectories/Pages/GP.aspx?pid=8CE5DC5D-D2C6-438F-B2A9-BD871C3AD92E,NA,NA,,,,FALSE,,,,,,,,,,,,,,,TBD,NA
Temple House Practice,NA,Saint Clements Road,,,Bristol,BS31 1AF,United Kingdom,51.4095431,-2.4974272,FALSE,GP,,,+44 117 986 2406,blue_badge@bathnes.gov.uk,http://www.templehousesurgery.nhs.uk/,NA,NA,,,,TRUE,8:00,18:00,8:00,18:00,8:00,18:00,8:00,18:00,8:00,18:00,,,,,TBD,NA
Blackberry Hill Hospital,NA,Manor Road,,,Bristol,BS16 2EW,United Kingdom,51.4826979,-2.5386134,FALSE,GP,,,+44 117 378 4441,NA,http://www.nhs.uk/Services/hospitals/Overview/DefaultView.aspx?id=2799,NA,NA,,,,FALSE,,,,,,,,,,,,,,,TBD,NA
The Brooms,NA,The Brooms,,,Bristol,BS16 7FH,United Kingdom,51.5037332,-2.4841556,FALSE,GP,,,,NA,https://www.emersonsgreentreatmentcentre.nhs.uk/,https://www.facebook.com/EmersonsGreenTreatmentCentre,NA,,,,FALSE,,,,,,,,,,,,,,,TBD,NA
The Family Practice Western College,NA,The Family Practice Western College,,,Bristol,BS6,United Kingdom,51.4626569,-2.6031162,FALSE,GP,,,+44 117 946 6455,NA,https://www.thefamilypracticewesterncollege.nhs.uk/,NA,NA,,,,FALSE,,,,,,,,,,,,,,,TBD,NA
OSJCT Grace Care Centre,NA,Whitebridge Gardens,,,Bristol,BS35 2FR,United Kingdom,51.6018091,-2.5159047,FALSE,GP,,,+44 1454 549400,press@osjct.co.uk,https://www.osjct.co.uk/care-home/grace-care-centre,https://www.facebook.com/osjct/?ref=br_rs,NA,,,,TRUE,,,,,,,,,,,,,0:00,,TBD,NA
The Lennard Surgery,NA,1 Lewis Road,,,Bristol,BS13 7JD,United Kingdom,51.4244378,-2.6137314,FALSE,GP,,,+44 117 964 2211,NA,https://www.thelennardsurgery.co.uk/,NA,NA,,,,TRUE,14:00,18:30,14:00,18:30,14:00,18:30,14:00,18:30,14:00,18:30,,,,,TBD,NA
Marina Healthcare Centre,NA,2 Haven View,,,Bristol,BS20 7QA,United Kingdom,51.484434,-2.7582456,FALSE,GP,,,+44 1275 868500,NA,http://www.harboursidefmp.nhs.uk/,NA,NA,,,,TRUE,8:00,18:30,8:00,18:30,8:00,18:30,8:00,18:30,8:00,18:30,,,,,TBD,NA
Old School Surgery,NA,2 Haven View,,,Bristol,BS16 2JB,United Kingdom,51.482115,-2.5293435,FALSE,GP,,,+44 117 965 3102,NA,http://www.oldschoolsurgery.org.uk/,NA,NA,,,,TRUE,8:00,18:30,8:00,18:30,8:00,18:30,8:00,18:30,8:00,18:30,,,,,TBD,NA
The Salvation Army Logos House,NA,Wade Street,,,Bristol,BS2 9EL,United Kingdom,51.4595496,-2.5801788,FALSE,GP,,,+44 117 955 2821,NA,http://www.salvationarmy.org.uk/logos-house,NA,NA,,,,TRUE,,,,,,,,,,,,,0:00,,TBD,NA
Concord Medical Centre,NA,Wade Street,,,Bristol,BS34 6BQ,United Kingdom,51.5291885,-2.5553418,FALSE,GP,,,+44 1454 616767,concordmedicalcentre@nhs.net,http://www.concordmedicalcentre.co.uk/,https://www.facebook.com/ConcordMedicalCentre?ref=hl,NA,,,,FALSE,,,,,,,,,,,,,,,TBD,NA
St Mary Street Surgery,NA,the surgery,Saint Mary Street,,Bristol,BS35 2AT,United Kingdom,51.6068587,-2.5253974,FALSE,GP,,,+44 1454 413691,NA,http://www.stmarystreetsurgery.nhs.uk/,NA,NA,,,,TRUE,8:30,18:30,8:30,18:30,8:30,18:30,8:30,18:30,8:30,18:30,,,,,TBD,NA
Wellington Road Family Practice,NA,Wellington Road,,,Bristol,BS37 5UY,United Kingdom,51.5490738,-2.4187079,FALSE,GP,,,+44 1454 323366,NA,https://www.wellingtonroadfamilypractice.co.uk/,NA,NA,,,,TRUE,8:30,18:30,8:30,18:30,8:30,18:30,8:30,18:30,8:30,18:30,,,,,TBD,NA
Wellspring Surgery,NA,Beam Street,,,Bristol,BS5 9QY,United Kingdom,51.4557786,-2.5614345,FALSE,GP,,,+44 117 955 7711,NA,http://www.wellspringsurgerybristol.nhs.uk/,NA,NA,,,,TRUE,8:00,18:30,8:00,18:30,8:00,18:30,8:00,18:30,8:00,18:30,,,,,TBD,NA
The Willow Surgery,NA,10 Hill House Road,,,Bristol,BS16 5FJ,United Kingdom,51.4851568,-2.4973667,FALSE,GP,,,+44 117 970 9500,NA,http://www.downendhealthgroup.com/,NA,NA,,,,TRUE,8:00,19:30,8:00,19:30,8:00,19:30,8:00,19:30,8:00,18:30,,,,,TBD,NA
Yate West Gate Centre and Minor Injuries Unit,NA,21 West Walk,,,Bristol,BS37 4AX,United Kingdom,51.5400695,-2.4145138,FALSE,GP,,,+44 1454 315355,NA,http://www.sirona-cic.org.uk/services/minor-injury-unit/,NA,NA,,,,TRUE,8:00,20:00,8:00,20:00,8:00,20:00,8:00,20:00,8:00,20:00,8:00,20:00,8:00,20:00,TBD,NA
The Station,NA,Silver Street,,,Bristol,BS1 2AG,United Kingdom,51.4574639,-2.5929752,FALSE,GP,,,+44 117 947 7948,info@creativeyouthnetwork.org.uk,http://www.creativeyouthnetwork.org.uk/the-station,https://www.facebook.com/creativeyouthnet,NA,,,,TRUE,9:00,22:00,9:00,22:00,9:00,22:00,9:00,22:00,9:00,22:00,11:00,17:00,,,TBD,NA
Thornbury Health Centre,NA,9-10 Eastland Road,,,Bristol,BS35 1DP,United Kingdom,51.6122423,-2.5181591,FALSE,GP,,,+44 1454 412167,NA,http://www.thornburyhealthcentre.nhs.uk/,NA,NA,,,,TRUE,8:00,18:30,8:00,18:30,8:00,18:30,8:00,18:30,8:00,18:30,,,,,TBD,NA
Anthony Brookes Surveys Ltd,NA,9-10 Eastland Road,,,Bristol,BS35 2BS,United Kingdom,51.604917,-2.524148,FALSE,GP,,,+44 1454 419133,info@anthonybrookes.com,http://www.anthonybrookes.com/,NA,NA,,,,TRUE,8:30,17:00,8:30,17:00,8:30,17:00,8:30,17:00,8:30,17:00,,,,,TBD,NA
Tower House Medical Centre,NA,Stock Way South,,,Bristol,BS48 2XX,United Kingdom,51.4326622,-2.7600526,FALSE,GP,,,+44 1275 866700,bnssg.researchtmg@nhs.net,https://www.towerhouse.nhs.uk/,https://www.facebook.com/TyntesfieldMedicalGP/,NA,,,,TRUE,8:00,18:30,8:00,18:30,8:00,18:30,8:00,18:30,8:00,18:30,,,,,TBD,NA
BrisDoc Healthcare Services,NA,Business Park,Hawkfield Way,,Bristol,BS14 0BB,United Kingdom,51.4116174,-2.5929665,FALSE,GP,,,+44 117 937 0900,NA,http://www.brisdoc.co.uk/,https://www.facebook.com/brisdoc/,NA,,,,TRUE,8:00,18:30,8:00,18:30,8:00,18:30,8:00,18:30,8:00,18:30,,,,,TBD,NA
Eclipse Office Park,NA,High Street,,,Bristol,BS16 5EL,United Kingdom,51.4810314,-2.5134926,FALSE,GP,,,,media.team@cqc.org.uk,https://www.cqc.org.uk/location/1-941902940/contact,http://www.facebook.com/sharer/sharer.php?u=https%,NA,,,,FALSE,,,,,,,,,,,,,,,TBD,NA
One Care Consulting & Services Limited,NA,Business Park,Hawkfield Way,,Bristol,BS14 0BB,United Kingdom,51.4121235,-2.5933018,FALSE,GP,,,+44 117 941 0900,enquiries@onecare.org.uk,https://onecare.org.uk/,https://www.facebook.com/One-Care-BNSSG-Ltd-,NA,,,,TRUE,8:00,18:00,8:00,18:00,8:00,18:00,8:00,18:00,8:00,17:00,,,,,TBD,NA
Bishopston Medical Practice,NA,43 Nevil Road,,,Bristol,BS7 9EG,United Kingdom,51.4785629,-2.5870004,FALSE,GP,,,+44 117 944 0701,NA,http://www.bishopstonmedicalpractice.nhs.uk/,NA,NA,,,,TRUE,8:30,18:30,8:30,19:00,8:30,18:30,8:30,19:00,8:30,18:30,,,,,TBD,NA
Whitchurch Health Centre,NA,Armada Road,,,Bristol,BS14 0SU,United Kingdom,51.413526,-2.5718277,FALSE,GP,,,+44 1275 839421,NA,http://www.armadapractice.co.uk/,https://www.facebook.com/Armada-Family-Practice-Whitchurch-Health-Centre-,NA,,,,TRUE,8:30,18:30,8:30,18:30,8:30,18:30,8:30,18:30,8:30,18:30,,,,,TBD,NA
Whiteladies Health Centre,NA,Whatley Road,,,Bristol,BS8 2PU,United Kingdom,51.465182,-2.611687,FALSE,GP,,,+44 117 973 1201,NA,http://www.whiteladiesmedical.nhs.uk/,https://www.facebook.com/Whiteladies-Health-Centre-,NA,,,,TRUE,7:30,18:30,7:30,18:30,7:30,18:30,7:30,18:30,7:30,18:30,,,,,TBD,NA
Wick Surgery,NA,111 High Street,,,Bristol,BS30 5QQ,United Kingdom,51.4522437,-2.4229878,FALSE,GP,,,+44 117 937 2214,NA,https://www.threeshiresmedical.co.uk/,NA,NA,,,,FALSE,,,,,,,,,,,,,,,TBD,NA
Crest Family Practice - William Budd,NA,Knowle West Health Park,Downton Road,,Bristol,BS4 1WH,United Kingdom,51.4287537,-2.5962626,FALSE,GP,,,+44 117 944 9700,NA,http://www.crestfamilypractice.co.uk/,NA,NA,,,,TRUE,8:30,18:30,8:30,18:30,8:30,18:30,8:30,18:30,8:30,18:30,,,,,TBD,NA
Yate West Gate Centre,NA,Yate West Gate Centre,21 West Walk,,Bristol,BS37 4AX,United Kingdom,51.5405066,-2.4142113,FALSE,GP,,,+44 1454 315355,NA,http://www.sirona-cic.org.uk/services/minor-injury-unit/,NA,NA,,,,FALSE,,,,,,,,,,,,,,,TBD,NA
Mendip Vale Medical Practice - Yatton,NA,155 Mendip Road,,,Bristol,BS49 4ER,United Kingdom,51.384611,-2.823958,FALSE,GP,,,+44 1934 839820,NA,http://www.mendipvale.nhs.uk/,https://www.facebook.com/mvmgGP/,NA,,,,TRUE,8:00,18:30,8:00,18:30,8:00,18:30,8:00,20:00,8:00,18:30,,,,,TBD,NA
Ebenezer Church,NA,286 Filton Avenue,,,Bristol,BS7 0BA,United Kingdom,51.4941194,-2.5749741,FALSE,Foodbank,,,+44 117 979 1399,info@northbristol.foodbank.org.uk,https://northbristol.foodbank.org.uk/locations/,https://www.facebook.com/NorthBristolFoodbank,NA,,,,TRUE,9:00,17:00,9:00,17:00,9:00,17:00,9:00,17:00,9:00,17:00,,,10:00,13:00,TBD,NA
Revive Charity Shop,NA,557 Filton Avenue,,,Bristol,BS7 0QH,United Kingdom,51.501917,-2.569009,FALSE,Foodbank,,,+44 117 969 8800,info@northbristol.foodbank.org.uk,https://northbristol.foodbank.org.uk/locations/,https://www.facebook.com/NorthBristolFoodbank,NA,,,,TRUE,9:00,17:00,9:00,17:00,9:00,12:00,9:00,17:00,9:00,17:00,9:00,16:00,,,TBD,NA
Buzz Lockleaze,NA,6 Gainsborough Square,,,Bristol,BS7 9XA,United Kingdom,51.4907904,-2.564281,FALSE,Foodbank,,,+44 117 269 0006,info@northbristol.foodbank.org.uk,https://northbristol.foodbank.org.uk/locations/,https://www.facebook.com/NorthBristolFoodbank,NA,,,,TRUE,,,10:00,14:00,10:00,14:00,10:00,14:00,,,,,,,TBD,NA
Southmead Foodbank Outlet,NA,Greenway Centre,Doncaster Road,Southmead,Bristol,BS10 5PY,United Kingdom,51.4994,-2.6075,FALSE,Foodbank,,,1179791399,info@northbristol.foodbank.org.uk,https://northbristol.foodbank.org.uk/locations/,https://www.facebook.com/NorthBristolFoodbank,NA,,,,TRUE,,,,,,,15:00,17:00,,,,,,,TBD,NA
St Chads Church,NA,172 Rodway Road,,,Bristol,BS34 5ED,United Kingdom,51.5310358,-2.5804819,FALSE,Foodbank,,,+44 117 979 3978,info@northbristol.foodbank.org.uk,https://northbristol.foodbank.org.uk/locations/,https://www.facebook.com/NorthBristolFoodbank,NA,,,,FALSE,,,,,,,,,,,,,,,TBD,NA
Bristol North West Foodbank,NA,Avonmouth Road,,,Bristol,BS11 9EN,United Kingdom,51.5009834,-2.6986544,FALSE,Foodbank,,,+44 117 923 5343,office@bristolnwfoodbank.org.uk,http://bristolnwfoodbank.org.uk/,NA,NA,,,,FALSE,,,,,,,,,,,,,,,TBD,NA
Emmanuel Chapel,NA,Satchfield Crescent,,,Bristol,BS10 7BN,United Kingdom,51.504933,-2.619835,FALSE,Foodbank,,,+44 117 950 1951,office@bristolnwfoodbank.org.uk,http://bristolnwfoodbank.org.uk/,NA,NA,,,,FALSE,,,,,,,,,,,,,,,TBD,NA
Hope Chapel,NA,Hope Chapel Hill,,,Bristol,BS8 4ND,United Kingdom,51.4512764,-2.6215643,FALSE,Foodbank,,,+44 117 927 2600,office@bristolnwfoodbank.org.uk,http://bristolnwfoodbank.org.uk/,NA,NA,,,,TRUE,9:00,17:00,9:00,17:00,9:00,17:00,9:00,17:00,,,,,,,TBD,NA
The Trussell Trust Food Bank,NA,St Marks Baptist Church,Saint Marks Road,,Bristol,BS5 6HX,United Kingdom,51.4674328,-2.5648556,FALSE,Foodbank,,,+44 7584 625082,ebfoodbank@crisis-centre.org.uk,http://eastbristol.foodbank.org.uk/,https://www.facebook.com/eastbristol.foodbank,NA,,,,TRUE,,,,,,,,,14:00,16:30,,,,,TBD,NA
Fishponds Baptist Church,NA,9 Downend Road,,,Bristol,BS16 5AS,United Kingdom,51.482488,-2.5230273,FALSE,Foodbank,,,+44 117 965 3421,ebfoodbank@crisis-centre.org.uk,http://eastbristol.foodbank.org.uk/,https://www.facebook.com/eastbristol.foodbank,NA,,,,TRUE,,,,,,,,,,,,,10:00,12:30,TBD,NA
Bourne Christian Centre,NA,St Marks Baptist Church,Saint Marks Road,,Bristol,BS15 8BE,United Kingdom,51.462971,-2.515493,FALSE,Foodbank,,,+44 117 947 8441,ebfoodbank@crisis-centre.org.uk,http://eastbristol.foodbank.org.uk/,https://www.facebook.com/eastbristol.foodbank,NA,,,,TRUE,,,,,,,,,,,,,10:30,12:30,TBD,NA
St Francis' Church,NA,Warwick Road,,,Bristol,BS31 2PW,United Kingdom,51.4085404,-2.5059806,FALSE,Foodbank,,,+44 117 986 3354,keynshamfoodbank@gmail.com,http://keynsham.foodbank.org.uk/,https://www.facebook.com/trusselltrust,NA,,,,FALSE,,,,,,,,,,,,,,,TBD,NA
Keynsham Methodist Church Victoria Centre,NA,2 Charlton Road,,,Bristol,BS31 2JA,United Kingdom,51.4161031,-2.4989652,FALSE,Foodbank,,,+44 117 914 9408,keynshamfoodbank@gmail.com,http://keynsham.foodbank.org.uk/,https://www.facebook.com/trusselltrust,NA,,,,TRUE,9:00,12:00,9:00,12:00,9:00,12:30,9:00,12:30,9:00,12:00,9:00,12:00,9:00,18:30,TBD,NA
The Trussell Trust Food Bank,NA,88 Station Road,,,Bristol,BS37 4PH,United Kingdom,51.5405355,-2.4239624,FALSE,Foodbank,,,+44 1454 326395,info@yatechippingsodbury.foodbank.org.uk,http://yatechippingsodbury.foodbank.org.uk/,https://www.facebook.com/NorthBristolFoodbank,NA,,07512 523343,,FALSE,,,,,,,,,,,,,,,TBD,NA
Resound,NA,Blackhorse Road,,,Bristol,BS16 9BP,United Kingdom,51.4945109,-2.4854223,FALSE,Foodbank,,,+44 117 305 0969,info@yatechippingsodbury.foodbank.org.uk,http://yatechippingsodbury.foodbank.org.uk/,https://www.facebook.com/NorthBristolFoodbank,NA,,,,TRUE,9:00,17:00,9:00,17:00,9:00,17:00,9:00,15:00,9:00,15:00,,,9:00,14:00,TBD,NA
Thornbury Baptist Church,NA,Gillingstool,,,Bristol,BS35 2EG,United Kingdom,51.6078656,-2.5223725,FALSE,Foodbank,,,+44 1454 419118,info@yatechippingsodbury.foodbank.org.uk,http://yatechippingsodbury.foodbank.org.uk/,https://www.facebook.com/NorthBristolFoodbank,NA,,,,TRUE,10:00,14:00,10:00,14:00,10:00,14:00,10:00,14:00,10:00,14:00,,,,,TBD,NA
The Clocktower Association,NA,144 Tower Road North,,,Bristol,BS30 8XU,United Kingdom,51.4533845,-2.4765202,FALSE,Community Centre,,,+44 117 967 1655,goddesstemplebristol@gmail.com,https://www.facebook.com/pg/BristolGoddessTemple/about/?ref=page_internal,NA,NA,,,,TRUE,10:00,13:00,10:00,13:00,10:00,13:00,,,,,,,,,TBD,NA
Bristol Rovers Football Club Ltd,NA,Filton Avenue,,,Bristol,BS7 0BF,United Kingdom,51.4865663,-2.5826826,FALSE,Other,TRUE,TRUE,+44 117 909 6648,davesams@bristolrovers.co.uk.,https://www.facebook.com/officialbristolrovers/?ref=bookmarks,NA,NA,,,,TRUE,9:00,17:00,9:00,17:00,9:00,17:00,9:00,17:00,9:00,17:00,9:00,17:00,,,TBD,NA
The Lounge,NA,"227-231 North Street, Bedminster, Bristol",,,Bristol,BS3 1JJ,United Kingdom,51.4411417,-2.6121372,FALSE,Public Toilet,TRUE,TRUE,+44 117 963 7340,lounge@thelounges.co.uk,http://www.thelounges.co.uk/lounge,https://www.facebook.com/originallounge/,NA,,,,TRUE,9:00,23:00,9:00,23:00,9:00,23:00,9:00,23:00,9:00,23:00,9:00,23:00,9:00,23:00,TBD,NA
Broadwalk Shopping Centre,NA,"Broadwalk, Knowle, Bristol",,,Bristol,BS4 2QU,United Kingdom,51.4344162,-2.5680084,FALSE,Public Toilet,TRUE,TRUE,+44 117 977 1871,enquiries@broad-walk.co.uk,http://www.broad-walk.com/,https://www.facebook.com/BroadwalkCentre,NA,,,,TRUE,8:00,18:30,8:00,18:30,8:00,18:30,8:00,18:30,8:00,19:30,8:00,18:00,10:00,16:00,TBD,NA
Barton Hill Settlement,NA,"41-43 Ducie Road,
 BS5 0AX",,,Bristol,BS5 0AX,United Kingdom,51.4562509,-2.5636739,FALSE,Public Toilet,TRUE,TRUE,+44 117 955 6971,NA,http://www.bartonhillsettlement.org.uk/,https://www.facebook.com/BartonHillSettlement,NA,,,,TRUE,9:00,16:00,9:00,16:00,9:00,16:00,9:00,16:00,9:00,16:00,,,,,TBD,NA
A4 Brislington Park and Ride,NA,"Brislington Park And Ride, Stockwood Road, Brislington, Bristol",,,Bristol,BS4 5ZZ,United Kingdom,51.4279082,-2.5370892,FALSE,Public Toilet,TRUE,TRUE,+44 345 602 0121,communitytoilets@bristol.gov.uk,https://www.bristol.gov.uk/streets-travel/public-toilets,http://www.facebook.com/BristolCouncil,http://www.twitter.com/bristolcouncil,,,,TRUE,6:30,21:30,6:30,21:30,6:30,21:30,6:30,21:30,6:30,21:30,7:30,20:00,,,TBD,NA
"The Park, Daventry Road",NA,"Daventry Road, Knowle, Bristol",,,Bristol,BS4 1DQ,United Kingdom,51.4297264,-2.5814611,FALSE,Public Toilet,TRUE,TRUE,,NA,http://www.theparkcentre.org.uk/,https://www.facebook.com/theparkcentreknowle,NA,,,,TRUE,7:00,22:00,7:00,22:00,7:00,22:00,7:00,22:00,7:00,22:00,9:00,16:00,9:00,16:00,TBD,NA
JD Weatherspoon - The Robert Fitzharding,NA,"The Robert Fitzharding, 24 Cannon St, Bedminster,
 BS3 1BN",,,Bristol,BS3 1BN,United Kingdom,51.4411849,-2.6008679,FALSE,Public Toilet,TRUE,TRUE,+44 117 966 2757,NA,https://www.jdwetherspoon.com/pubs/all-pubs/england/bristol/the-robert-fitzharding-bristol?utm_source=google&utm_medium=maps&utm_campaign=gmb,NA,NA,,,,TRUE,8:00,23:59:59,8:00,23:59:59,8:00,23:59:59,8:00,23:59:59,8:00,1:00:00,8:00,1:00,8:00,23:59:59,TBD,NA
Tesco - Golden Hill,NA,"Golden Hill, Lime Trees Road,
 BS6 7XW",,,Bristol,BS6 7XW,United Kingdom,51.4857264,-2.5961679,FALSE,Public Toilet,TRUE,TRUE,+44 345 677 9084,NA,http://www.tesco.com/store-locator/uk/?bID=2151&sc_cmp=ref*yg*stc*2151&utm_source=yext_-_google&utm_campaign=GMB_Stores_Super_England&utm_medium=organic,https://www.facebook.com/tesco/,NA,,,,TRUE,8:00,22:00,8:00,22:00,8:00,22:00,8:00,22:00,8:00,22:00,8:00,22:00,10:00,16:00,TBD,NA
Morrison's - Hartcliffe,NA,"Hareclive Rd, Petersons Avenue, Hartcliffe",,,Bristol,BS14 0BE,United Kingdom,51.4052022,-2.5996336,FALSE,Public Toilet,TRUE,TRUE,+44 117 964 4059,NA,https://my.morrisons.com/storefinder/143,NA,NA,,,,TRUE,7:00,22:00,7:00,22:00,7:00,22:00,7:00,22:00,7:00,22:00,7:00,22:00,7:00,22:00,TBD,NA
Redcatch Park Public Conveniences,NA,"Broad Walk, Knowle, Bristol",,,Bristol,BS4 2RA,United Kingdom,51.4340039,-2.571934,FALSE,Public Toilet,TRUE,TRUE,,communitytoilets@bristol.gov.uk,https://www.bristol.gov.uk/streets-travel/public-toilets,http://www.facebook.com/BristolCouncil,http://www.twitter.com/bristolcouncil,,,,TRUE,7:00,16:30,7:00,16:30,7:00,16:30,7:00,16:30,7:00,16:30,7:00,16:30,7:00,16:30,TBD,NA
St George's Bristol,NA,"Great George Street (off Park Street), Bristol",,,Bristol,BS1 5RR,United Kingdom,51.4542267,-2.6037356,FALSE,Public Toilet,TRUE,TRUE,+44 845 402 4001,administration@stgeorgesbristol.co.uk,http://www.stgeorgesbristol.co.uk/,https://www.facebook.com/pages/St-Georges-Bristol/,NA,,,,TRUE,10:00,18:00,10:00,18:00,10:00,18:00,10:00,18:00,10:00,18:00,10:00,18:00,10:00,18:00,TBD,NA
Canford Cemetery and Crematorium,NA,"Canford Lane, Westbury-on-Trym, Bristol",,,Bristol,BS9 3PQ,United Kingdom,51.4943763,-2.6270008,FALSE,Public Toilet,TRUE,TRUE,+44 117 903 8280,cems.crems@bristol.gov.uk,https://www.bristol.gov.uk/births-deaths-marriages/cemeteries-and-crematoria,http://www.facebook.com/BristolCouncil,http://www.twitter.com/bristolcouncil,,,,TRUE,9:00,16:00,9:00,16:00,9:00,16:00,9:00,16:00,9:00,16:00,11:00,16:00,11:00,16:00,TBD,NA
Arnolfini Cafe (Bristol Beer Factory),NA,"Arnolfini, Narrow Quay, Bristol",,,Bristol,BS1 4QA,United Kingdom,51.4492816,-2.597373,FALSE,Public Toilet,TRUE,TRUE,+44 117 917 2305,arnolfini@bristolbeerfactory.co.uk,http://www.arnolfini.org.uk/visit/cafe-bar,https://www.facebook.com/arnolfiniarts,NA,,,,TRUE,9:00,16:00,9:00,22:00,9:00,22:00,9:00,22:00,9:00,23:00,10:00,23:00,10:00,18:00,TBD,NA
The Lounge Coffee Shop and Bar Ltd,NA,167 Greystoke Avenue,,,Bristol,BS10 6AS,United Kingdom,51.503316,-2.6026473,FALSE,Public Toilet,TRUE,FALSE,,communitytoilets@bristol.gov.uk,https://www.bristol.gov.uk/streets-travel/public-toilets,http://www.facebook.com/BristolCouncil,http://www.twitter.com/bristolcouncil,,,,TRUE,9:00,16:00,9:00,16:00,9:00,16:00,9:00,22:30,9:00,22:30,9:00,22:30,8:00,14:00,TBD,NA
Blackboy Hill Urinal,NA,Top of Blackboy Hill (Westbury Road) just before the Downs,,,Bristol,BS8 1PB,United Kingdom,51.4708628,-2.6154102,FALSE,Public Toilet,TRUE,FALSE,,communitytoilets@bristol.gov.uk,https://www.bristol.gov.uk/streets-travel/public-toilets,http://www.facebook.com/BristolCouncil,http://www.twitter.com/bristolcouncil,,,,TRUE,0:00,23:59:59,0:00,23:59:59,0:00,23:59:59,0:00,23:59:59,0:00,23:59:59,0:00,23:59:59,0:00,23:59:59,TBD,NA
Knowle West Media Centre,NA,Linster Avenue,,,Bristol,BS4 1NL,United Kingdom,51.4254807,-2.593128,FALSE,Public Toilet,TRUE,TRUE,+44 117 903 0444,NA,http://www.kwmc.org.uk/,NA,NA,,,,TRUE,9:30,17:00,9:30,17:00,9:30,17:00,9:30,17:00,9:30,17:00,,,,,TBD,NA
Avonmouth Community Centre,NA,"257 Avonmouth Road, Avonmouth",,,Bristol,BS11 9EN,United Kingdom,51.5001643,-2.6983594,TRUE,Community Centre,TRUE,TRUE,+44 117 903 8580,avonmouthccamanager@gmail.com,https://sites.google.com/site/avonmouthcca/,https://www.facebook.com/avonmouthcommunity,https://twitter.com/avonmouth,Julia Ball,,julia.ball@bristol.gov.uk,TRUE,9:30,16:30,9:30,16:30,9:30,16:30,9:30,16:30,,,,,,,In the library,NA
St Andrews Park - Public Conveniences,NA,"Melita Rd (& Effingham Road), Bristol",,,Bristol,BS6 5AZ,United Kingdom,51.4740165,-2.5870381,FALSE,Public Toilet,TRUE,TRUE,,NA,https://www.bristol.gov.uk/museums-parks-sports-culture/st-andrews-park,http://www.facebook.com/BristolCouncil,http://www.twitter.com/bristolcouncil,,,,TRUE,7:30,21:00,7:30,21:00,7:30,21:00,7:30,21:00,7:30,21:00,7:30,21:00,7:30,21:00,TBD,NA
Dundridge Public Conveniences,NA,"Recreation Ground Dundridge Lane Bristol,
 BS5 8SZ",,,Bristol,BS5 8SZ,United Kingdom,51.4498319,-2.5287123,FALSE,Public Toilet,TRUE,FALSE,,NA,https://www.bristol.gov.uk/museums-parks-sports-culture/dundridge-park,http://www.facebook.com/BristolCouncil,http://www.twitter.com/bristolcouncil,,,,FALSE,,,,,,,,,,,,,,,TBD,NA
Redcatch Park Pavillion,NA,"Redcatch Park, Broad Walk, Knowle",,,Bristol,BS4 2RA,United Kingdom,51.4339479,-2.5713943,FALSE,Public Toilet,TRUE,TRUE,,communitytoilets@bristol.gov.uk,https://www.bristol.gov.uk/streets-travel/public-toilets,http://www.facebook.com/BristolCouncil,http://www.twitter.com/bristolcouncil,,,,FALSE,,,,,,,,,,,,,,,TBD,NA
Sainsbury's - St Phillips Causeway,NA,"St Philips Causeway, St Philips,
 BS4 3QU",,,Bristol,BS4 3QU,United Kingdom,51.4430156,-2.5598275,FALSE,Public Toilet,TRUE,FALSE,+44 117 977 4887,NA,https://stores.sainsburys.co.uk/0795/castle-court,NA,NA,,,,TRUE,7:00,22:00,7:00,22:00,7:00,22:00,7:00,22:00,7:00,22:00,7:00,22:00,7:00,22:00,TBD,NA
"City Hall, Bristol City Council",NA,"College Green, Bristol",,,Bristol,BS1 5TL,United Kingdom,51.4526073,-2.6020397,FALSE,Public Toilet,TRUE,TRUE,+44 117 922 2000,NA,https://www.bristol.gov.uk/,http://www.facebook.com/BristolCouncil,http://www.twitter.com/bristolcouncil,,,,TRUE,8:00,19:00,8:00,19:00,8:00,19:00,8:00,19:00,8:00,19:00,,,,,TBD,NA
Bristol Central Library,NA,"Deanery Road, Bristol",,,Bristol,BS1 5TL,United Kingdom,51.4514844,-2.6025898,FALSE,Public Toilet,TRUE,TRUE,+44 117 903 7250,NA,http://www.bristol.gov.uk/libraries,http://www.facebook.com/BristolCouncil,http://www.twitter.com/bristolcouncil,,,,TRUE,10:00,19:00,10:00,19:00,,,10:00,19:00,10:00,16:45,10:00,16:45,13:00,16:45,TBD,NA
Millenium Square car park public toilets,NA,"Canons Way, Bristol",,,Bristol,BS1 5LL,United Kingdom,51.449441,-2.6005339,FALSE,Public Toilet,TRUE,TRUE,+44 117 915 7227,info@millenniumparking.co.uk,http://www.millenniumsquarecarpark.co.uk/,NA,NA,,,,TRUE,11:00,17:00,11:00,17:00,11:00,17:00,11:00,17:00,11:00,17:00,11:00,17:00,11:00,17:00,TBD,NA
Canford Cemetery - Public Convenience,NA,"Canford Lane Westbury-on-Trym, Bristol",,,Bristol,BS9 3PQ,United Kingdom,51.4931573,-2.6264704,FALSE,Public Toilet,TRUE,TRUE,+44 117 903 8280,cems.crems@bristol.gov.uk,https://www.bristol.gov.uk/births-deaths-marriages/cemeteries-and-crematoria,http://www.facebook.com/BristolCouncil,http://www.twitter.com/bristolcouncil,,,,TRUE,9:00,16:00,9:00,16:00,9:00,16:00,9:00,16:00,9:00,16:00,9:00,16:00,10:00,16:00,TBD,NA
Blaise Castle House Museum and Roman Villa,NA,Henbury Road,,,Bristol,BS10 7QS,United Kingdom,51.5057675,-2.6324355,FALSE,Public Toilet,TRUE,FALSE,+44 117 903 9818,NA,https://www.bristolmuseums.org.uk/blaise-castle-house-museum/,https://www.facebook.com/blaisecastlehousemuseum,NA,,,,TRUE,10:00,17:00,,,,,11:00,16:00,11:00,16:00,11:00,16:00,11:00,16:00,TBD,NA
Tesco - Callington Road,NA,"Callington Road,
 BS4 5AY",,,Bristol,BS4 5AY,United Kingdom,51.432475,-2.5546494,FALSE,Public Toilet,TRUE,TRUE,+44 345 677 9079,NA,http://www.tesco.com/store-locator/uk/?bID=2141&sc_cmp=ref*yg*stc*2141&utm_source=yext_-_google&utm_campaign=GMB_Stores_Extra_England&utm_medium=organic,https://www.facebook.com/tesco/,NA,,,,TRUE,8:00,22:00,8:00,22:00,8:00,22:00,8:00,22:00,8:00,22:00,10:00,16:00,,,TBD,NA
Cafe on the Square,NA,"Shirehampton Road, Bristol",,,Bristol,BS9 2DY,United Kingdom,51.4879828,-2.6475945,FALSE,Public Toilet,TRUE,TRUE,+44 117 329 6154,NA,http://smci.org.uk/,http://www.facebook.com/SeaMillsCommunityInitiatives,NA,,,,TRUE,9:00,17:00,9:00,17:00,9:00,17:00,9:00,17:00,9:00,17:00,10:00,14:00,,,TBD,NA
The Wellspring Healthy Living Centre,NA,"Bean Street, Barton Hill",,,Bristol,BS5 9QY,United Kingdom,51.4557585,-2.5614234,FALSE,Public Toilet,TRUE,TRUE,+44 117 304 1400,NA,https://www.wellspringhlc.org.uk/,https://www.facebook.com/WellspringHealthyLivingCentre,NA,,,,TRUE,9:00,19:00,9:00,19:00,9:00,19:00,9:00,19:00,9:00,19:00,,,,,TBD,NA
Brandon Hill Park - Public Conveniences,NA,"Great George Street, City Centre, Bristol",,,Bristol,BS1 5RR,United Kingdom,51.4537439,-2.6074708,FALSE,Public Toilet,TRUE,TRUE,+44 117 922 2000,NA,https://www.bristol.gov.uk/museums-parks-sports-culture/brandon-hill,https://www.facebook.com/brandonhillbristol/,http://www.twitter.com/bristolcouncil,,,,TRUE,8:00,15:30,8:00,15:30,8:00,15:30,8:00,15:30,8:00,15:30,8:00,15:30,8:00,15:30,TBD,NA
Sainburys Winterstoke Road,NA,111 Winterstoke Road,,,Bristol,BS3 3NS,United Kingdom,51.4337265,-2.6193472,FALSE,Public Toilet,TRUE,TRUE,+44 117 966 3064,NA,https://stores.sainsburys.co.uk/0678/winterstoke-road,NA,NA,,,,TRUE,7:00,22:00,7:00,22:00,7:00,22:00,7:00,22:00,7:00,22:00,7:00,22:00,10:00,16:00,TBD,NA
Stonehouse Pizza and Carvery,NA,Henbury Arms 189 Henbury Road,,,Bristol,BS10 7AD,United Kingdom,51.50596,-2.6284039,FALSE,Public Toilet,TRUE,TRUE,+44 117 950 0144,NA,https://www.stonehouserestaurants.co.uk/nationalsearch/southwest/henburybristol?utm_source=google&utm_medium=organic&utm_campaign=gmb,https://www.facebook.com/stonehousepizzacarvery/,NA,,,,TRUE,8:00,22:00,8:00,22:00,8:00,22:00,8:00,22:00,8:00,22:00,8:00,22:00,8:00,22:00,TBD,NA
"Hengrove Play Park, Hengrove Leisure Centre,",NA,"Hengrove way, Hengrove, Bristol,
 BS14 0HR",,,Bristol,BS14 0HR,United Kingdom,51.4154325,-2.5849137,FALSE,Public Toilet,TRUE,TRUE,+44 117 937 0200,NA,http://www.leisurecentre.com/hengrove-park-leisure-centre,https://www.facebook.com/Hengrove-Park-Leisure-Centre-,NA,,,,FALSE,,,,,,,,,,,,,,,TBD,NA
Avonmouth Medical Centre (Pioneer Medical Group),NA,"1 Collins Street, Bristol",,,Bristol,BS11 9JJ,United Kingdom,51.4987533,-2.694529,TRUE,Health Centre,TRUE,TRUE,+44 117 959 1919,pmg@nhs.net,https://www.pioneermedicalgroup.co.uk/avonmouth.html,https://www.facebook.com/pg/pmguk,https://twitter.com/priorymedicalgp,Julie Lee,,julie.lee35@nhs.net,TRUE,8:00,18:00,8:00,18:00,8:00,18:00,8:00,18:00,8:00,18:00,,,,,Adjacent to reception,NA
Henbury Sports Centre,NA,Avonmouth Way,,,Bristol,BS10 7NG,United Kingdom,51.5093074,-2.6327884,FALSE,Public Toilet,TRUE,TRUE,+44 117 353 2555,NA,http://www.everyoneactive.com/centre/Henbury-Leisure-Centre/?utm_source=Web&utm_medium=GoogleBusiness,https://www.facebook.com/eaHenbury,NA,,,,TRUE,7:15,22:00,7:15,22:00,7:15,22:00,7:15,22:00,7:15,22:00,7:15,22:00,7:30,20:00,TBD,NA
Mshed,NA,"Prince's Wharf, Wapping Road",,,Bristol,BS1 4RN,United Kingdom,51.4477456,-2.5979753,FALSE,Public Toilet,TRUE,TRUE,+44 117 352 6600,NA,https://www.bristolmuseums.org.uk/m-shed/,https://www.facebook.com/mshedbristol,NA,,,,TRUE,10:00,17:00,10:00,17:00,10:00,17:00,10:00,17:00,10:00,17:00,10:00,17:00,10:00,17:00,TBD,NA
the Life Boat,NA,"25 High St, Bristol",,,Bristol,BS11 0DX,United Kingdom,51.489005,-2.6753649,FALSE,Public Toilet,TRUE,FALSE,,NA,http://www.facebook.com/thelifeboatinn/,NA,NA,,,,TRUE,10:00,23:00,10:00,23:00,10:00,23:00,10:00,23:00,10:00,23:00,10:00,23:00,12:00,22:00,TBD,NA
Sea Walls Public Toilets,NA,Circular Road By Sea Walls viewing Area,,,Bristol,BS9 1ZZ,United Kingdom,51.4701439,-2.6355419,FALSE,Public Toilet,TRUE,TRUE,,communitytoilets@bristol.gov.uk,https://www.bristol.gov.uk/streets-travel/public-toilets,http://www.facebook.com/BristolCouncil,http://www.twitter.com/bristolcouncil,,,,TRUE,7:30,18:00,7:30,18:00,7:30,18:00,7:30,18:00,7:30,18:00,7:30,18:00,7:30,18:00,TBD,NA
A4 Portway Park & Ride,NA,"A4 Portway, Bristol",,,Bristol,BS11 9QE,United Kingdom,51.4899866,-2.6885941,FALSE,Public Toilet,TRUE,TRUE,,NA,http://travelwest.info/park-ride/bristol/portway,https://www.facebook.com/sharer/sharer.php?u=https://travelwest.info/park-ride/bristol/portway,NA,,,,TRUE,6:00,21:40,6:00,21:40,6:00,21:40,6:00,21:40,6:00,21:40,6:00,21:40,9:00,18:40,TBD,NA
BCC Customers Service Point,NA,"100 Temple Street, Redcliff, Bristol",,,Bristol,BS1 6AG,United Kingdom,51.4496047,-2.5865772,FALSE,Public Toilet,TRUE,TRUE,+44 117 922 2000,NA,https://www.bristol.gov.uk/contact/citizen-service-points,http://www.facebook.com/BristolCouncil,http://www.twitter.com/bristolcouncil,,,,FALSE,,,,,,,,,,,,,,,TBD,NA
Ridingleaze Medical Centre (Pioneer Medical Group),NA,"Ridingleaze, Lawrence Weston",,,Bristol,BS11 0QE,United Kingdom,51.500447,-2.6598141,TRUE,Health Centre,TRUE,TRUE,+44 117 959 1919,pmg@nhs.net,http://www.pioneermedicalgroup.co.uk/ridingleaze.html,https://www.facebook.com/pg/pmguk,https://twitter.com/priorymedicalgp,Julie Lee,,julie.lee35@nhs.net,TRUE,8:00,18:00,8:00,18:00,8:00,18:00,8:00,18:00,8:00,18:00,,,,,Adjacent to reception,NA
Southville Centre,NA,"Beauley Rd,
 BS3 1QG",,,Bristol,BS3 1QG,United Kingdom,51.4436875,-2.6055339,FALSE,Public Toilet,TRUE,TRUE,+44 117 923 1039,info@bs3community.org.uk,https://bs3community.org.uk/,https://www.facebook.com/BS,NA,,,,TRUE,8:30,20:15,8:30,20:15,8:30,20:15,8:30,20:15,8:30,18:00,,,,,TBD,NA
Ashton Gate Limited,NA,"Coffee shop, Ashton Gate Stadium, Bristol",,,Bristol,BS3 2EL,United Kingdom,51.4393106,-2.620747,FALSE,Public Toilet,TRUE,TRUE,+44 117 963 0600,NA,http://www.ashtongatestadium.co.uk/,https://www.facebook.com/AshtonGateStadium/,NA,,,,TRUE,8:00,16:00,8:00,16:00,8:00,16:00,8:00,16:00,8:00,16:00,,,,,TBD,NA
The Jersey Lily,NA,"193 Whiteladies Road, Bristol",,,Bristol,BS8 2SB,United Kingdom,51.4695036,-2.6140118,FALSE,Public Toilet,TRUE,FALSE,+44 117 973 8590,jerseylily@wickwarbrewing.co.uk,http://thejerseylily.co.uk/,NA,NA,,,,TRUE,11:00,23:00,11:00,23:00,11:00,23:00,11:00,23:59:59,11:00,23:59:59,11:00,23:59:59,12:00,23:00,TBD,NA
Oldbury Court Estate - Public Conveniences,NA,"Oldbury Court Road, Bristol",,,Bristol,BS16 2JH,United Kingdom,51.4879161,-2.5281763,FALSE,Public Toilet,TRUE,TRUE,+44 117 922 2000,communitytoilets@bristol.gov.uk,https://www.bristol.gov.uk/streets-travel/public-toilets,http://www.facebook.com/BristolCouncil,http://www.twitter.com/bristolcouncil,,,,TRUE,8:00,17:15,8:00,17:15,8:00,17:15,8:00,17:15,8:00,17:15,8:00,17:15,8:00,17:15,TBD,NA
Tobacco Factory,NA,"Raleigh Road, Bristol",,,Bristol,BS3 1TF,United Kingdom,51.442391,-2.6134997,FALSE,Public Toilet,TRUE,TRUE,+44 117 902 0060,NA,http://tobaccofactory.com/,https://www.facebook.com/tobaccofactory,NA,,,,TRUE,10:00,23:00,10:00,23:00,10:00,23:00,10:00,23:00,10:00,12:00,10:00,12:00,10:00,23:00,TBD,NA
The Kitchen,NA,"The Station, Silver Street, Bristol",,,Bristol,BS1 2AG,United Kingdom,51.4574451,-2.5928135,FALSE,Public Toilet,TRUE,TRUE,+44 117 428 6198,NA,http://www.thestationkitchen.co.uk/,NA,NA,,,,TRUE,9:00,15:00,9:00,15:00,9:00,15:00,9:00,15:00,9:00,15:00,9:00,15:00,,,TBD,NA
"Cabot Circus Shopping Centre, Lower ground floor",NA,"Glass House, Broadmead",,,Bristol,BS1 3BX,United Kingdom,51.4589417,-2.5843309,FALSE,Public Toilet,TRUE,TRUE,+44 117 952 9361,NA,http://www.cabotcircus.com/,NA,NA,,,,TRUE,9:00,20:15,9:00,20:15,9:00,20:15,9:00,20:15,9:00,20:15,9:00,20:15,9:00,17:30,TBD,NA
Campus Pool,NA,"Whitchurch Rd, Bishopsworth",,,Bristol,BS13 7RW,United Kingdom,51.4159869,-2.6171368,FALSE,Public Toilet,TRUE,TRUE,+44 117 964 1478,NA,http://www.campusskateparks.co.uk/,https://www.facebook.com/campusskatepark,NA,,,,TRUE,10:00,21:00,10:00,21:00,10:00,21:00,10:00,21:00,10:00,18:00,10:00,18:00,,,TBD,NA
"Ashton Court Estate, golf hub Public Conveniences",NA,"Golf Hub, Rownham Hill, Long Ashton, North Somerset",,,Bristol,BS8 3PX,United Kingdom,51.4511158,-2.6441136,FALSE,Public Toilet,TRUE,TRUE,+44 117 963 9176,NA,http://www.bristol.gov.uk/page/leisure-and-culture/ashton-court-estate,http://www.facebook.com/BristolCouncil,http://www.twitter.com/bristolcouncil,,,,TRUE,7:00,17:00,7:00,17:00,7:00,17:00,7:00,17:00,7:00,17:00,7:00,17:00,7:00,17:00,TBD,NA
Blaise Castle Estate Public Conveniences,NA,"Kings Weston Road, Kingsweston, Bristol",,,Bristol,BS10 7QT,United Kingdom,51.5054365,-2.6366494,FALSE,Public Toilet,TRUE,TRUE,,contact@friendsofblaise.co.uk,https://www.bristol.gov.uk/museums-parks-sports-culture/blaise-castle-estate,http://www.facebook.com/BristolCouncil,http://www.twitter.com/bristolcouncil,,,,TRUE,8:30,16:00,8:30,16:00,8:30,16:00,8:30,16:00,8:30,16:00,,,,,TBD,NA
"Ambition Lawrence Weston, Lawrence Weston Youth Centre",NA,"Lawrence Weston Road, Long Cross, Bristol",,,Bristol,BS11 0RX,United Kingdom,51.5049439,-2.6538192,FALSE,Public Toilet,TRUE,TRUE,+44 117 923 5112,NA,http://www.ambitionlw.org/,https://www.facebook.com/sharer/sharer.php?u=https://www.ambitionlw.org/free-cricket-at-st-bedes/,NA,,,,TRUE,9:00,16:00,9:00,16:00,9:00,16:00,9:00,16:00,9:00,16:00,,,,,TBD,NA
Spike Island,NA,"133 Cumberland Road, Bristol",,,Bristol,BS1 6UX,United Kingdom,51.4470399,-2.6106211,FALSE,Public Toilet,TRUE,TRUE,+44 117 929 2266,admin@spikeisland.org.uk,http://www.spikeisland.org.uk/,https://www.facebook.com/spikeisland,http://www.twitter.com/BristolPFF,,,,TRUE,8:30,17:00,8:30,17:00,8:30,17:00,8:30,17:00,8:30,17:00,10:00,17:00,10:00,17:00,TBD,NA
Fishponds Library,NA,"Robinson House, Hockeys Lane, Bristol",,,Bristol,BS16 3HL,United Kingdom,51.477587,-2.5331226,FALSE,Public Toilet,TRUE,TRUE,+44 117 903 8560,avonmouth.library@bristol.gov.uk,http://www.bristol.gov.uk/LibraryViewer?XSL=library&LibraryId=1040,http://www.facebook.com/BristolCouncil,http://www.twitter.com/bristolcouncil,,,,TRUE,10:00,17:00,10:00,17:00,,,11:00,19:00,10:00,17:00,10:00,17:00,,,TBD,NA
Tinto Lounge,NA,"344-346 Gloucester Road, Horfield, Bristol",,,Bristol,BS7 8TP,United Kingdom,51.4830159,-2.5874452,FALSE,Public Toilet,TRUE,FALSE,+44 117 942 0526,tinto@thelounges.co.uk,http://thelounges.co.uk/tinto/,https://www.facebook.com/tintoloungebristol/,NA,,,,TRUE,8:00,23:00,8:00,23:00,8:00,23:00,8:00,23:00,8:00,23:00,9:00,23:00,9:00,23:00,TBD,NA
Long Ashton Park and Ride,NA,"Aston Road, Bristol",,,Bristol,BS3 2HB,United Kingdom,51.4362348,-2.6358335,FALSE,Public Toilet,TRUE,TRUE,+44 117 966 0399,firstsouthuk@firstgroup.com,https://travelwest.info/park-ride/bristol/long-ashton,https://www.facebook.com/sharer/sharer.php?u=https://travelwest.info/park-ride/bristol/long-ashton,NA,,,,TRUE,5:30,22:45,5:30,22:45,5:30,22:45,5:30,22:45,5:30,22:45,5:30,22:45,,,TBD,NA
McDonald's - Brislington,NA,"Bath Road / Emery Road,
 BS4 5PF",,,Bristol,BS4 5PF,United Kingdom,51.4300676,-2.53874,FALSE,Public Toilet,TRUE,TRUE,+44 117 977 0780,NA,http://www.mcdonalds.co.uk/,NA,NA,,,,TRUE,0:00,23:59:59,0:00,23:59:59,0:00,23:59:59,0:00,23:59:59,0:00,23:59:59,0:00,23:59:59,0:00,23:59:59,TBD,NA
Burger King - St Phillips Causeway,NA,"St Phillips Causeway,
 BS4 3BD",,,Bristol,BS4 3BD,United Kingdom,51.4423066,-2.5614303,FALSE,Public Toilet,TRUE,FALSE,+44 117 977 0791,NA,https://locations.burgerking.co.uk/bristol/st-philips-causeway--arnos-vale.html,https://www.facebook.com/burgerkinguk/,NA,,,,TRUE,10:00,22:00,10:00,22:00,10:00,22:00,10:00,22:00,8:00,1:00,8:00,1:00,10:00,22:00,TBD,NA
JD Weatherspoon - Van Dyck Forum,NA,"Van Dyck Forum, 748-756 Fishponds Road",,,Bristol,BS16 3UA,United Kingdom,51.4795782,-2.5302371,FALSE,Public Toilet,TRUE,TRUE,+44 117 965 1337,NA,https://www.jdwetherspoon.com/pubs/all-pubs/england/bristol/the-van-dyck-forum-bristol?utm_source=google&utm_medium=maps&utm_campaign=gmb,NA,NA,,,,TRUE,8:00,23:59:59,8:00,23:59:59,8:00,23:59:59,8:00,23:59:59,8:00,1:00,8:00,1:00,8:00,23:59:59,TBD,NA
Conham river park,NA,Conham Road,,,Bristol,BS15 1AW,United Kingdom,51.4471827,-2.5347769,FALSE,Public Toilet,TRUE,FALSE,,NA,http://www.southglos.gov.uk/environment-and-planning/countryside/nature-reserves-woodlands/avon-valley-woodlands-nature-reserve/,NA,NA,,,,FALSE,,,,,,,,,,,,,,,TBD,NA
Ashton Court Estate Public Conveniences Stable yard,NA,"Kennel Lodge Road, Long Ashton, North Somerset",,,Bristol,BS41 9JN,United Kingdom,51.4441959,-2.6377479,FALSE,Public Toilet,TRUE,TRUE,+44 117 963 9176,NA,http://www.bristol.gov.uk/page/leisure-and-culture/ashton-court-estate,http://www.facebook.com/BristolCouncil,http://www.twitter.com/bristolcouncil,,,,TRUE,7:00,17:00,7:00,17:00,7:00,17:00,7:00,17:00,7:00,17:00,7:00,17:00,7:00,17:00,TBD,NA
Burger King,NA,"4 Eastgate Road, Eastgate Centre",,,Bristol,BS5 6XX,United Kingdom,51.4740476,-2.5650452,FALSE,Public Toilet,TRUE,TRUE,+44 117 935 4288,NA,https://locations.burgerking.co.uk/bristol/unit-6--eastgate-retail-park.html,NA,NA,,,,TRUE,8:00,23:00,8:00,23:00,8:00,23:00,8:00,23:00,8:00,23:00,9:00,23:00,9:00,23:00,TBD,NA
We the curious - Cafe,NA,"Anchor Road, Bristol",,,Bristol,BS1 5DB,United Kingdom,51.4504213,-2.6004855,FALSE,Public Toilet,TRUE,TRUE,+44 845 345 1235,NA,https://www.wethecurious.org/,NA,NA,,,,TRUE,10:00,17:00,10:00,17:00,10:00,17:00,10:00,17:00,10:00,17:00,10:00,18:00,10:00,18:00,TBD,NA
Create Centre,NA,"Smeaton Road, Howells",,,Bristol,BS1 6XN,United Kingdom,51.4471111,-2.6224185,FALSE,Public Toilet,TRUE,TRUE,+44 117 922 4370,NA,http://www.createbristol.org/,NA,NA,,,,TRUE,8:30,17:00,8:30,17:00,8:30,17:00,8:30,17:00,8:30,16:30,10:00,16:00,8:00,23:59:59,TBD,NA
V-shed (JD Weatherspoons),NA,"V Shed, Canon's Road",,,Bristol,BS1 5UH,United Kingdom,51.4496903,-2.5988351,FALSE,Public Toilet,TRUE,TRUE,+44 117 952 9950,NA,https://www.jdwetherspoon.com/pubs/all-pubs/england/bristol/vshed-bristol,NA,NA,,,,TRUE,8:00,23:59:59,8:00,1:00,8:00,2:00,8:00,2:00,8:00,2:00,8:00,3:00,8:00,0:00,TBD,NA
River Cottage Canteen,NA,"St Johns Court, Whiteladies Road, Bristol",,,Bristol,BS8 2QY,United Kingdom,51.4678359,-2.6131245,FALSE,Public Toilet,TRUE,TRUE,+44 117 973 2458,NA,http://www.rivercottage.net/,NA,NA,,,,TRUE,10:00,22:00,10:00,22:00,10:00,22:00,10:00,22:00,10:00,22:00,9:00,22:00,9:00,17:00,TBD,NA
Banco Lounge,NA,"107 Wells Rd, Bristol",,,Bristol,BS4 2BS,United Kingdom,51.4415405,-2.5775816,FALSE,Public Toilet,TRUE,TRUE,+44 117 908 6010,NA,https://thelounges.co.uk/banco/,NA,NA,,,,TRUE,9:00,23:00,9:00,23:00,9:00,23:00,9:00,23:00,9:00,23:00,9:00,23:00,9:00,23:00,TBD,NA
Victoria Park Public Conveniences Park Lodge,NA,"Somerset Terrace, Bristol",,,Bristol,BS3 4LL,United Kingdom,51.4400883,-2.5897552,FALSE,Public Toilet,TRUE,TRUE,,NA,https://www.bristol.gov.uk/streets-travel/public-toilets,NA,NA,,,,TRUE,7:30,17:15,7:30,17:15,7:30,17:15,7:30,17:15,7:30,17:15,7:30,17:15,7:30,17:15,TBD,NA
Ardagh Public Conveniences Horfield Common,NA,"Kellaway Avenue, Horfield, Bristol",,,Bristol,BS6 7YL,United Kingdom,51.4850682,-2.5929046,FALSE,Public Toilet,TRUE,TRUE,,NA,http://www.theardagh.com/,NA,NA,,,,TRUE,8:00,17:15,8:00,17:15,8:00,17:15,8:00,17:15,8:00,17:15,8:00,17:15,8:00,17:15,TBD,NA
"The Greenway Centre, The Southmead Development Trust",NA,"The Greenway Centre, Doncaster Road",,,Bristol,BS10 5PY,United Kingdom,51.4994876,-2.6087913,FALSE,Public Toilet,TRUE,TRUE,+44 117 950 3335,NA,https://www.southmead.org/,NA,NA,,,,TRUE,8:00,22:00,8:00,22:00,8:00,22:00,8:00,22:00,8:00,22:00,9:00,17:00,9:00,17:00,TBD,NA
Stoke Road Public Toilets,NA,"Stoke Road by the Water Tower, BS9 1FG",,,Bristol,BS9 1FG,United Kingdom,51.471777,-2.6176685,FALSE,Public Toilet,TRUE,TRUE,,NA,http://www.bristol.gov.uk/page/leisure-and-culture/downs,http://www.facebook.com/BristolCouncil,http://www.twitter.com/bristolcouncil,,,,TRUE,7:45,20:15,7:45,20:15,7:45,20:15,7:45,20:15,7:45,20:15,7:45,20:15,7:45,20:15,TBD,NA
Alma Tavern,NA,"18-20 Alma Vale Road, Clifton, Bristol",,,Bristol,BS8 2HY,United Kingdom,51.4625222,-2.6147668,FALSE,Public Toilet,TRUE,FALSE,+44 117 973 5171,info@almatavernandtheatre.co.uk,http://www.almatavernandtheatre.co.uk/,https://www.facebook.com/pages/Alma-Tavern-Theatre/,NA,,,,TRUE,12:00,23:00,12:00,23:00,12:00,23:00,12:00,23:00,12:00,0:00,12:00,0:00,12:00,23:00,TBD,NA
Helios Medical Centre Stoke Hill,NA,"17 Stoke Hill, Bristol",,,Bristol,BS9 1JN,United Kingdom,51.4754119,-2.6307484,FALSE,Public Toilet,TRUE,TRUE,+44 117 962 6060,helios.medicalcentre@nhs.net,https://www.heliosbristol.co.uk/,NA,NA,,,,TRUE,8:00,19:00,8:00,20:00,7:30,18:30,,,8:00,18:30,,,,,TBD,NA
Bradgate Health Centre (Pioneer Medical Group),NA,"Ardenton Walk, Brentry",,,Bristol,BS10 6SP,United Kingdom,51.5102722,-2.6176811,TRUE,Health Centre,TRUE,TRUE,+44 117 959 1919,pmg@nhs.net,https://www.pioneermedicalgroup.co.uk/bradgate.html,https://www.facebook.com/pg/pmguk,https://twitter.com/priorymedicalgp,Julie Lee,,julie.lee35@nhs.net,TRUE,8:00,18:00,8:00,18:00,8:00,18:00,8:00,18:00,8:00,18:00,8:00,13:00,,,Adjacent to reception,NA
Snuff Mills Park Public Conveniences,NA,"River View, Bristol,
 BS161DL",,,Bristol,BS16 1DL,United Kingdom,51.4862386,-2.5444859,FALSE,Public Toilet,TRUE,TRUE,,communitytoilets@bristol.gov.uk,https://www.bristol.gov.uk/streets-travel/public-toilets,http://www.facebook.com/BristolCouncil,http://www.twitter.com/bristolcouncil,,,,TRUE,8:00,17:15,8:00,17:15,8:00,17:15,8:00,17:15,8:00,17:15,8:00,17:15,8:00,17:15,TBD,NA
East Trees Health Centre,NA,100a Fishponds Road,,,Bristol,BS5 6SA,United Kingdom,51.4701054,-2.5621997,FALSE,Public Toilet,TRUE,TRUE,+44 117 244 4123,NA,https://www.eastvillemedicalpractice.co.uk/,NA,NA,,,,TRUE,8:00,19:30,8:00,18:30,8:00,18:30,8:00,18:30,8:00,18:30,,,,,TBD,NA
Waitrose - Henleaze,NA,51 Northumbria Drive,,,Bristol,BS9 4HN,United Kingdom,51.4804013,-2.6122842,FALSE,Public Toilet,TRUE,TRUE,+44 117 962 4244,NA,https://www.waitrose.com/content/waitrose/en/bf_home/bf/151.html,https://www.facebook.com/Waitrose,NA,,,,TRUE,7:30,21:00,7:30,21:00,7:30,21:00,7:30,21:00,7:30,21:00,7:30,21:00,10:00,16:00,TBD,NA
Horfield Lesuire centre,NA,"Dorinan Road, Horfield",,,Bristol,BS7 0XW,United Kingdom,51.49369,-2.5837751,FALSE,Public Toilet,TRUE,TRUE,+44 117 903 1643,NA,http://www.everyoneactive.com/centre/Horfield-Leisure-Centre/?utm_source=Web&utm_medium=GoogleBusiness,https://www.facebook.com/eaHorfield/,NA,,,,TRUE,6:30,22:30,6:30,22:30,6:30,22:30,6:30,22:30,6:30,22:30,8:00,20:00,8:00,20:00,TBD,NA
The Range,NA,"Imperial Retail Park, Hartcliffe Way, Bristol",,,Bristol,BS13 7TJ,United Kingdom,51.4168026,-2.6026106,FALSE,Public Toilet,TRUE,TRUE,+44 117 964 1740,NA,https://www.therange.co.uk/,NA,NA,,,,TRUE,8:30,20:00,8:30,20:00,8:30,20:00,8:30,20:00,8:30,20:00,8:30,20:00,10:00,17:00,TBD,NA
South Bristol Crematorium and Cemetery,NA,"Bridgwater Road, Bristol",,,Bristol,BS13 7AS,United Kingdom,51.4242413,-2.6244454,FALSE,Public Toilet,TRUE,TRUE,+44 117 903 8330,cems.crems@bristol.gov.uk,https://www.bristol.gov.uk/births-deaths-marriages/cemeteries-and-crematoria,http://www.facebook.com/BristolCouncil,http://www.twitter.com/bristolcouncil,,,,TRUE,9:00,16:00,9:00,16:00,9:00,16:00,9:00,16:00,9:00,16:00,11:00,16:00,11:00,16:00,TBD,NA
The Yeoman,NA,700 Wells Road,,,Bristol,BS14 9HX,United Kingdom,51.4135165,-2.5592944,FALSE,Public Toilet,TRUE,TRUE,+44 1275 892014,NA,https://www.sizzlingpubs.co.uk/findapub/yorkshireandthehumber/theyeomanwhitchurch?utm_source=google&utm_medium=organic&utm_campaign=gmb,https://www.facebook.com/sizzlingpubs,NA,,,,TRUE,11:00,23:00,11:00,23:00,11:00,23:00,11:00,23:00,11:00,23:00,11:00,23:00,11:00,23:00,TBD,NA
Sainsbury's - Clifton Down,NA,"Clifton Down Shopping Centre, Whiteladies Road,
 BS8 2NN",,,Bristol,BS8 2NN,United Kingdom,51.4640093,-2.6106108,FALSE,Public Toilet,TRUE,TRUE,+44 117 973 2348,NA,http://www.cliftondownsc.com/,https://www.facebook.com/cliftondownsc,NA,,,,TRUE,8:00,22:00,8:00,22:00,8:00,22:00,8:00,22:00,8:00,22:00,8:00,22:00,11:00,17:00,TBD,NA
JD Weatherspoon - St Georges Hall,NA,"St Georges Hall, 203 Church Rd",,,Bristol,BS5 9HL,United Kingdom,51.4593754,-2.5552059,FALSE,Public Toilet,TRUE,TRUE,+44 117 955 1488,NA,http://www.jdwetherspoon.co.uk/home/pubs/st-georges-hall,NA,NA,,,,TRUE,8:00,12:00,8:00,12:00,8:00,12:00,8:00,12:00,8:00,1:00,8:00,1:00,8:00,12:00,TBD,NA
Bristol Museum and Art Gallery,NA,"Queens Road, Bristol",,,Bristol,BS8 1RL,United Kingdom,51.4562868,-2.6051537,FALSE,Public Toilet,TRUE,TRUE,+44 117 922 3571,NA,http://www.bristolmuseums.org.uk/Bristol-museum-and-art-gallery,https://www.facebook.com/BristolMuseumandArtGallery,NA,,,,TRUE,10:00,17:00,10:00,17:00,10:00,17:00,10:00,17:00,10:00,17:00,10:00,17:00,10:00,17:00,TBD,NA
Tenpin Bristol,NA,St Phillips causeway,,,Bristol,BS2 0SP,United Kingdom,51.4488469,-2.5601928,FALSE,Public Toilet,TRUE,TRUE,+44 871 222 3675,NA,https://www.tenpin.co.uk/our-locations/bristol/,http://www.facebook.com/TenpinUK,NA,,,,TRUE,11:00,23:00,11:00,23:00,11:00,23:00,11:00,23:00,11:00,23:00,10:00,23:00,10:00,23:00,TBD,NA
Merrywood Practice,NA,"Knowle Health Park, Downton Road",,,Bristol,BS4 1WH,United Kingdom,51.4280481,-2.5964572,FALSE,Public Toilet,TRUE,TRUE,+44 117 944 9750,merrywoodpractice@nhs.net,http://www.merrywoodpractice.nhs.uk/,http://www.facebook.com/DontCutTheMerrywoodPractice,NA,,,,TRUE,8:30,18:30,8:30,18:30,8:30,18:30,8:30,18:30,8:30,18:30,,,,,TBD,NA
Asda Whitchurch,NA,"Whitchurch District Centre, Oatlands Avenue",,,Bristol,BS14 0ST,United Kingdom,51.4139098,-2.5709607,FALSE,Public Toilet,TRUE,TRUE,+44 1275 839431,NA,http://storelocator.asda.com/store/bristol-whitchurch,http://www.facebook.com/Asda,NA,,,,TRUE,8:00,23:00,7:30,23:00,7:30,23:00,7:30,23:00,7:30,23:00,7:00,22:00,10:00,16:00,TBD,NA
Helios - Sea Mills Surgery,NA,2 Riverleaze,,,Bristol,BS9 2HL,United Kingdom,51.4849132,-2.6500828,FALSE,Public Toilet,TRUE,TRUE,+44 117 968 1182,NA,https://www.seamillssurgery.nhs.uk/,NA,NA,,,,TRUE,8:00,18:30,8:00,18:30,8:00,18:30,8:00,18:30,8:00,18:30,,,,,TBD,NA
The Hub,NA,"1 Fedden Building, Gainsborough Square",,,Bristol,BS7 9FB,United Kingdom,51.4900898,-2.5625921,FALSE,Public Toilet,TRUE,TRUE,+44 117 914 1129,info@lockleazent.co.uk,http://www.lockleazehub.org.uk/,https://www.facebook.com/thehublockleaze,http://www.twitter.com/LockleazeHub/,,,,TRUE,9:00,15:00,9:00,15:00,9:00,15:00,9:00,15:00,9:00,15:00,,,,,TBD,NA
"Greenbank Cemetery (The Lodge, Greenbank Road entrance)",NA,"Greenbank Road, Easton, Bristol",,,Bristol,BS5 6HL,United Kingdom,51.4685088,-2.5536961,FALSE,Public Toilet,TRUE,FALSE,+44 117 903 8280,cems.crems@bristol.gov.uk,https://www.bristol.gov.uk/births-deaths-marriages/cemeteries-and-crematoria,http://www.facebook.com/BristolCouncil,http://www.twitter.com/bristolcouncil,,,,TRUE,9:00,16:00,9:00,16:00,9:00,16:00,9:00,16:00,9:00,16:00,11:00,16:00,11:00,16:00,TBD,NA
Suspension Bridge Toilets,NA,"Suspension Bridge Road, opposite toll station",,,Bristol,BS9 3ZZ,United Kingdom,51.4560827,-2.6251998,FALSE,Public Toilet,TRUE,TRUE,,communitytoilets@bristol.gov.uk,https://www.bristol.gov.uk/streets-travel/public-toilets,http://www.facebook.com/BristolCouncil,http://www.twitter.com/bristolcouncil,,,,TRUE,8:00,23:00,8:00,23:00,8:00,23:00,8:00,23:00,8:00,23:00,8:00,23:00,8:00,23:00,TBD,NA
Grupo Lounge (Lounges),NA,8 Canford Lane,,,Bristol,BS9 3DH,United Kingdom,51.4928879,-2.6194727,FALSE,Public Toilet,TRUE,TRUE,+44 117 950 0279,grupo@thelounges.co.uk,http://www.thelounges.co.uk/grupo/,https://www.facebook.com/grupoloungewestbury/,NA,,,,TRUE,9:00,23:00,9:00,23:00,9:00,23:00,9:00,23:00,9:00,23:00,9:00,23:00,9:00,23:00,TBD,NA
SS Great Britain,NA,"Great Western Dockyard, Gas Ferry Road, Bristol",,,Bristol,BS1 6TY,United Kingdom,51.4488431,-2.6074574,FALSE,Public Toilet,TRUE,TRUE,+44 117 926 0680,NA,http://www.ssgreatbritain.org/,http://www.facebook.com/ssGreatBritain,NA,,,,TRUE,10:00,16:30,10:00,16:30,10:00,16:30,10:00,16:30,10:00,16:30,10:00,16:30,10:00,16:30,TBD,NA
Watershed,NA,"1 Cannons Rd, Harbourside, Bristol",,,Bristol,BS1 5TX,United Kingdom,51.4517734,-2.5980711,FALSE,Public Toilet,TRUE,TRUE,+44 117 927 5100,info@watershed.co.uk,https://www.watershed.co.uk/,NA,NA,,,,TRUE,9:00,23:00,9:00,23:00,9:00,23:00,9:00,23:00,9:00,23:00,10:00,23:00,10:00,23:00,TBD,NA
Cabot Circus Shopping Centre 3 floor management suite,NA,"Glass House, Broadmead,BS1 3BX",,,Bristol,BS1 3BX,United Kingdom,51.4582697,-2.5847416,FALSE,Public Toilet,TRUE,TRUE,+44 117 952 9361,NA,http://www.cabotcircus.com/,NA,NA,,,,TRUE,9:00,20:15,9:00,20:15,9:00,20:15,9:00,20:15,9:00,20:15,9:00,20:15,9:00,17:30,TBD,NA
Source Cafe - St Nicholas Market,NA,"St Nicholas Market Office, St Nicholas Market, Corn Street, Bristol",,,Bristol,BS1 1JQ,United Kingdom,51.454404,-2.5935289,FALSE,Public Toilet,TRUE,TRUE,+44 117 922 4014,NA,https://www.bristol.gov.uk/web/st-nicholas-markets,https://www.facebook.com/stnicholasmarket,NA,,,,TRUE,9:30,17:00,9:30,17:00,9:30,17:00,9:30,17:00,9:30,17:00,9:30,17:30,,,TBD,NA
Bristol South Swimming Pool,NA,Dean Lane,,,Bristol,BS3 1BS,United Kingdom,51.4422586,-2.6006105,FALSE,Public Toilet,TRUE,TRUE,+44 117 903 1618,NA,http://www.everyoneactive.com/centre/Bristol-South-Swimming-Pool/?utm_source=Web&utm_medium=GoogleBusiness,https://www.facebook.com/eaBristolSouth/,NA,,,,TRUE,7:30,20:00,7:30,19:00,7:30,20:00,7:30,20:00,7:30,18:00,8:00,15:45,,,TBD,NA
Greenbank Cemetery (The Mortuary),NA,"Greenbank Road, Easton, Bristol",,,Bristol,BS5 6HL,United Kingdom,51.4704278,-2.5552757,FALSE,Public Toilet,TRUE,FALSE,+44 117 903 8280,cems.crems@bristol.gov.uk,https://www.bristol.gov.uk/births-deaths-marriages/cemeteries-and-crematoria,http://www.facebook.com/BristolCouncil,http://www.twitter.com/bristolcouncil,,,,TRUE,9:00,16:30,9:00,16:30,9:00,16:30,9:00,16:30,9:00,16:30,,,,,TBD,NA
Porto Lounge (business name is Lounges),NA,765 Fishponds Road,,,Bristol,BS16 3BS,United Kingdom,51.4817188,-2.5281162,FALSE,Public Toilet,TRUE,TRUE,+44 117 902 4567,porto@thelounges.co.uk,http://thelounges.co.uk/porto/,https://www.facebook.com/loungeporto/,NA,,,,TRUE,9:00,23:00,9:00,23:00,9:00,23:00,9:00,23:00,9:00,23:00,9:00,23:00,9:00,23:00,TBD,NA
Air Balloon Surgery,NA,"Kenn Rd, St George, Bristol",,,Bristol,BS5 7PD,United Kingdom,51.4589376,-2.5324683,FALSE,Public Toilet,TRUE,TRUE,+44 117 909 9912,NA,http://www.airballoonsurgery.co.uk/,NA,NA,,,,TRUE,8:00,18:30,8:00,18:30,8:00,18:30,8:00,18:30,8:00,18:30,,,,,TBD,NA
The Old Crow,NA,Crow Lane,,,Bristol,BS10 7DR,United Kingdom,51.5099332,-2.6188163,FALSE,Public Toilet,TRUE,FALSE,+44 117 914 1269,info@theoldcrow-bristol.co.uk,https://www.theoldcrow-bristol.co.uk/,NA,NA,,,,TRUE,11:00,23:00,11:00,23:00,11:00,23:00,11:00,23:00,11:00,23:00,11:00,23:00,11:00,23:00,TBD,NA
Creative Workspace,NA,"Queens Road, Withywood, Bristol",,,Bristol,BS13 8LF,United Kingdom,51.4108277,-2.6185639,FALSE,Public Toilet,TRUE,TRUE,+44 117 964 6799,bristolcreativeworkspace@gmail.com?subject=General%20enquiry,http://www.creativeworkspacebristol.co.uk/,https://www.facebook.com/CreativeWorkspaceBristol/,NA,,,,TRUE,,,9:00,15:00,9:00,15:00,9:00,15:00,9:00,15:00,,,,,TBD,NA
Windmill Hill City Farm,NA,"Philip Street, Bedminster, Bristol",,,Bristol,BS3 4EA,United Kingdom,51.4423138,-2.5928253,FALSE,Public Toilet,TRUE,TRUE,+44 117 963 3252,NA,http://www.windmillhillcityfarm.org.uk/,NA,NA,,,,TRUE,9:00,17:00,9:00,17:00,9:00,17:00,9:00,17:00,9:00,17:00,9:00,17:00,9:00,17:00,TBD,NA